"state","name","city","country","lat","lng","description","wndfinder_link","stat[]"
"true","Paros ","Pounda","Greece","37.03","25.0977","Big white sandy beach with lots of space for launching and landing, clear from obstacles.","https://www.windfinder.com/wind-cgi/homepagestatistics.pl?STATIONSNR=gr17","[{:month=>1, :stat=>56}, {:month=>2, :stat=>58}, {:month=>3, :stat=>55}, {:month=>4, :stat=>52}, {:month=>5, :stat=>44}, {:month=>6, :stat=>56}, {:month=>7, :stat=>75}, {:month=>8, :stat=>71}, {:month=>9, :stat=>55}, {:month=>10, :stat=>54}, {:month=>11, :stat=>51}, {:month=>12, :stat=>54}]"
"true","Rhodos ","Prasonisi","Greece","35.8865","27.772","The beach is big around 500-600m. In summer there are many cars and visitors. But there is space for everyone. Be careful with your camper. With high winds and tide the water can get very high. Camping is allowed and there are many in summer (around 100).","https://www.windfinder.com/wind-cgi/homepagestatistics.pl?STATIONSNR=gr7","[{:month=>1, :stat=>27}, {:month=>2, :stat=>29}, {:month=>3, :stat=>34}, {:month=>4, :stat=>40}, {:month=>5, :stat=>45}, {:month=>6, :stat=>63}, {:month=>7, :stat=>80}, {:month=>8, :stat=>72}, {:month=>9, :stat=>54}, {:month=>10, :stat=>25}, {:month=>11, :stat=>15}, {:month=>12, :stat=>23}]"
"true","Lefkada ","Lefkada","Greece","38.8428","20.6836","The beach is facing Northwest. It has nice, smooth pebbles, but you can find big but smooth rocks as soon as you get in the water. Lots of space to launch your kite. This is a 5km sandy beach with no trees anywhere. Even in the back there is a lake. The beach is dirty, a lot of waste from sea. And also glass. Be careful.","https://www.windfinder.com/wind-cgi/homepagestatistics.pl?STATIONSNR=gr13","[{:month=>1, :stat=>23}, {:month=>2, :stat=>28}, {:month=>3, :stat=>25}, {:month=>4, :stat=>29}, {:month=>5, :stat=>31}, {:month=>6, :stat=>36}, {:month=>7, :stat=>41}, {:month=>8, :stat=>39}, {:month=>9, :stat=>26}, {:month=>10, :stat=>18}, {:month=>11, :stat=>15}, {:month=>12, :stat=>22}]"
"true","Corfu ","Moriatika, Linia","Greece","39.4316","19.9329","Sandy beach. Situated in a natural reserve. Easy launch and kiting area. Many tourists during summer.","https://www.windfinder.com/wind-cgi/homepagestatistics.pl?STATIONSNR=gr3","[{:month=>1, :stat=>24}, {:month=>2, :stat=>25}, {:month=>3, :stat=>23}, {:month=>4, :stat=>19}, {:month=>5, :stat=>15}, {:month=>6, :stat=>12}, {:month=>7, :stat=>15}, {:month=>8, :stat=>14}, {:month=>9, :stat=>15}, {:month=>10, :stat=>14}, {:month=>11, :stat=>23}, {:month=>12, :stat=>23}]"
"true","Crete ","Heraclion","Greece","35.3392","25.0632","Beach is sandy and wide. There is a nice large space to launch between windsurfers and swimmers. Not many people.","https://www.windfinder.com/wind-cgi/homepagestatistics.pl?STATIONSNR=gr1","[{:month=>1, :stat=>46}, {:month=>2, :stat=>48}, {:month=>3, :stat=>42}, {:month=>4, :stat=>42}, {:month=>5, :stat=>35}, {:month=>6, :stat=>43}, {:month=>7, :stat=>65}, {:month=>8, :stat=>61}, {:month=>9, :stat=>45}, {:month=>10, :stat=>42}, {:month=>11, :stat=>37}, {:month=>12, :stat=>42}]"
"true","Naxos ","Mikri Vigla","Greece","37.0268","25.3707","Nice sandy beach, enough space. Launching area in front of the school.","https://www.windfinder.com/wind-cgi/homepagestatistics.pl?STATIONSNR=gr16","[{:month=>1, :stat=>61}, {:month=>2, :stat=>62}, {:month=>3, :stat=>61}, {:month=>4, :stat=>57}, {:month=>5, :stat=>50}, {:month=>6, :stat=>53}, {:month=>7, :stat=>70}, {:month=>8, :stat=>67}, {:month=>9, :stat=>60}, {:month=>10, :stat=>62}, {:month=>11, :stat=>58}, {:month=>12, :stat=>60}]"
"true","Rhodos ","Kremasti","Greece","36.4196","28.1252","The beach is about 20-25m wide. Then there are trees and a small road. It's a stone beach. The beach is a bit small and not the best place for kitesurfing. The area to enter the water is limited by buoys to distinguish the kite area from the swimming area. It is therefore important to be able to stay upwind. It is possible to launch further up the beach, then you will have a long downwinder back to the kitecenter.","https://www.windfinder.com/wind-cgi/homepagestatistics.pl?STATIONSNR=gr55","[{:month=>1, :stat=>13}, {:month=>2, :stat=>14}, {:month=>3, :stat=>16}, {:month=>4, :stat=>4}, {:month=>5, :stat=>6}, {:month=>6, :stat=>8}, {:month=>7, :stat=>29}, {:month=>8, :stat=>20}, {:month=>9, :stat=>5}, {:month=>10, :stat=>11}, {:month=>11, :stat=>5}, {:month=>12, :stat=>30}]"
"true","Kos ","Tingaki","Greece","36.8907","27.1734","There is enough place at the beach. Respect and take care if there are swimmers. The beach is sandy, sometimes there are some broken bottles. After the beach there are bushes/trees. Take care of the pipe who enters the sea from the salt lake.","https://www.windfinder.com/wind-cgi/homepagestatistics.pl?STATIONSNR=gr4","[{:month=>1, :stat=>42}, {:month=>2, :stat=>45}, {:month=>3, :stat=>47}, {:month=>4, :stat=>40}, {:month=>5, :stat=>33}, {:month=>6, :stat=>48}, {:month=>7, :stat=>64}, {:month=>8, :stat=>56}, {:month=>9, :stat=>44}, {:month=>10, :stat=>36}, {:month=>11, :stat=>32}, {:month=>12, :stat=>41}]"
"true","Limnos ","Kalliopi","Greece","39.9026","25.3543","We travel for holidays at Limnos Island and the Keros beach. What we found in this kitesurf, windsurf spot was completely unpredictableworst kitesurf spot. 5 km beach full of seaweeds, half area of the beach have gusty wind, half prohibited and illegal crazy kiteschools. 2 km is taken from schools that are illegal cause they extend their limits to the beach so much that TheyDONT ALLOW TO ANYONE KITE IN THEIR area except if you pay them. Also they close their limits to eachother, so there isn't space for tourists or visitors for using the water, but only for their customers.. Their license is until 200m2 area and they extend it illegally until 3000m2.What about the rest of the beach?The port police have been placed balloons in the water to close the area to protect 30 swimmers only. This area extend in2km distance on the beach, where is prohibited for kitesurfers or windsurfers . Port police are very strict for applying this law to kitesurfers or windsurfers but they ignore the kiteschools that are force you to pay for using the water or that they extend their area..We were 7 families that we have babies and we need umbrellas and they forced us to kite far away in a rocky, unprotected, without coffee-bars or umbrellas 200m beach area..All kitesurf, windsurf visitors were so disappointed..!! i felt very bad!","https://www.windfinder.com/wind-cgi/homepagestatistics.pl?STATIONSNR=gr5","[{:month=>1, :stat=>44}, {:month=>2, :stat=>48}, {:month=>3, :stat=>46}, {:month=>4, :stat=>37}, {:month=>5, :stat=>32}, {:month=>6, :stat=>35}, {:month=>7, :stat=>45}, {:month=>8, :stat=>53}, {:month=>9, :stat=>42}, {:month=>10, :stat=>47}, {:month=>11, :stat=>40}, {:month=>12, :stat=>45}]"
"true","Kos ","Marmari","Greece","36.8713","27.1308","Long sandy beach. The permitted kite-zone was moved further downwind where the beach is only about 10 m wide. The presence of trees on this small beach makes launching and landing there very tricky.","https://www.windfinder.com/wind-cgi/homepagestatistics.pl?STATIONSNR=gr4","[{:month=>1, :stat=>42}, {:month=>2, :stat=>45}, {:month=>3, :stat=>47}, {:month=>4, :stat=>40}, {:month=>5, :stat=>33}, {:month=>6, :stat=>48}, {:month=>7, :stat=>64}, {:month=>8, :stat=>56}, {:month=>9, :stat=>44}, {:month=>10, :stat=>36}, {:month=>11, :stat=>32}, {:month=>12, :stat=>41}]"
"true","Lake Balaton ","Balatonbereny, Balatonfenyves","Hungary","46.7151","17.4812","No more sandy beach as the water level got higher.","https://www.windfinder.com/wind-cgi/homepagestatistics.pl?STATIONSNR=hu12","[{:month=>1, :stat=>17}, {:month=>2, :stat=>19}, {:month=>3, :stat=>25}, {:month=>4, :stat=>30}, {:month=>5, :stat=>25}, {:month=>6, :stat=>20}, {:month=>7, :stat=>15}, {:month=>8, :stat=>12}, {:month=>9, :stat=>20}, {:month=>10, :stat=>17}, {:month=>11, :stat=>12}, {:month=>12, :stat=>13}]"
"true","Lake Balaton ","Siofok, Szabadi Sosto","Hungary","46.9319","18.1087","The beach 500m long and 60m deep, covered with grass. The beach is quite busy and not so big, therefore it's quite difficult to launch and land the kite. Beach is mostly grass, with some rocks as coast protection. Some trees and buildings on the beach but wide enough to launch relatively safely.","https://www.windfinder.com/wind-cgi/homepagestatistics.pl?STATIONSNR=hu9","[{:month=>1, :stat=>27}, {:month=>2, :stat=>19}, {:month=>3, :stat=>30}, {:month=>4, :stat=>38}, {:month=>5, :stat=>33}, {:month=>6, :stat=>26}, {:month=>7, :stat=>22}, {:month=>8, :stat=>19}, {:month=>9, :stat=>26}, {:month=>10, :stat=>32}, {:month=>11, :stat=>18}, {:month=>12, :stat=>23}]"
"true","Lake Balaton ","Siofok, Balatonvilagos","Hungary","46.9878","18.1659","","https://www.windfinder.com/wind-cgi/homepagestatistics.pl?STATIONSNR=hu9","[{:month=>1, :stat=>27}, {:month=>2, :stat=>19}, {:month=>3, :stat=>30}, {:month=>4, :stat=>38}, {:month=>5, :stat=>33}, {:month=>6, :stat=>26}, {:month=>7, :stat=>22}, {:month=>8, :stat=>19}, {:month=>9, :stat=>26}, {:month=>10, :stat=>32}, {:month=>11, :stat=>18}, {:month=>12, :stat=>23}]"
"false","Velence Lake ","Velence","Hungary","47.2341","18.6525","","https://www.windfinder.com/wind-cgi/homepagestatistics.pl?STATIONSNR=hu7","[{:month=>1, :stat=>0}, {:month=>2, :stat=>0}]"
"false","Lake Velence ","Velence","Hungary","47.2164","18.6292","","https://www.windfinder.com/wind-cgi/homepagestatistics.pl?STATIONSNR=hu7","[{:month=>1, :stat=>0}, {:month=>2, :stat=>0}]"
"true","Alftanes ","Hafnarfjorour","Iceland","64.0898","","","https://www.windfinder.com/wind-cgi/homepagestatistics.pl?STATIONSNR=is1","[{:month=>1, :stat=>47}, {:month=>2, :stat=>50}, {:month=>3, :stat=>52}, {:month=>4, :stat=>51}, {:month=>5, :stat=>45}, {:month=>6, :stat=>28}, {:month=>7, :stat=>27}, {:month=>8, :stat=>29}, {:month=>9, :stat=>43}, {:month=>10, :stat=>42}, {:month=>11, :stat=>45}, {:month=>12, :stat=>50}]"
"true","Bull Island ","Dublin","Ireland","53.3677","","The beach is 3km long, compact sand, car accessible. Rocks about 100m either side of the entrance to stop people driving the length of the beach. Not really any hazard to kitesurfers.","https://www.windfinder.com/wind-cgi/homepagestatistics.pl?STATIONSNR=ie2","[{:month=>1, :stat=>60}, {:month=>2, :stat=>56}, {:month=>3, :stat=>59}, {:month=>4, :stat=>55}, {:month=>5, :stat=>56}, {:month=>6, :stat=>50}, {:month=>7, :stat=>49}, {:month=>8, :stat=>50}, {:month=>9, :stat=>51}, {:month=>10, :stat=>54}, {:month=>11, :stat=>57}, {:month=>12, :stat=>55}]"
"true","Sandymount Beach ","Dublin","Ireland","53.3284","","It is a long and quiet beach with firm sand, but disappears when the tide is in.","https://www.windfinder.com/wind-cgi/homepagestatistics.pl?STATIONSNR=ie2","[{:month=>1, :stat=>60}, {:month=>2, :stat=>56}, {:month=>3, :stat=>59}, {:month=>4, :stat=>55}, {:month=>5, :stat=>56}, {:month=>6, :stat=>50}, {:month=>7, :stat=>49}, {:month=>8, :stat=>50}, {:month=>9, :stat=>51}, {:month=>10, :stat=>54}, {:month=>11, :stat=>57}, {:month=>12, :stat=>55}]"
"false","Shitties ","Tralee, Fahamore","Ireland","52.2999","","Long, sandy beach. Lots of space.","https://www.windfinder.com/wind-cgi/homepagestatistics.pl?STATIONSNR=ie24","[{:month=>1, :stat=>0}, {:month=>2, :stat=>0}, {:month=>3, :stat=>0}, {:month=>4, :stat=>0}, {:month=>5, :stat=>6}, {:month=>6, :stat=>0}, {:month=>7, :stat=>1}]"
"true","Tramore ","Waterford, Tramore","Ireland","52.1569","","Tramore beach is 5km long with high sand dunes but it is also very stony particularly near the promenade so for a more sandy feel it is best to walk towards the other end of the beach.","https://www.windfinder.com/wind-cgi/homepagestatistics.pl?STATIONSNR=ie22","[{:month=>1, :stat=>2}, {:month=>2, :stat=>1}, {:month=>3, :stat=>7}, {:month=>4, :stat=>4}, {:month=>5, :stat=>7}, {:month=>6, :stat=>3}, {:month=>7, :stat=>8}, {:month=>8, :stat=>3}, {:month=>9, :stat=>4}, {:month=>10, :stat=>5}, {:month=>11, :stat=>14}, {:month=>12, :stat=>3}]"
"true","Benone Beach ","Coleraine","Ireland","55.1664","","Benone Beach is quite isolated and therefore there is little to offer those not participating in the beach based sports with the obvious exception of sun bathing! The beach is exceptionally long and smooth with firm sand.","https://www.windfinder.com/wind-cgi/homepagestatistics.pl?STATIONSNR=gb138","[{:month=>1, :stat=>39}, {:month=>2, :stat=>36}, {:month=>3, :stat=>43}, {:month=>4, :stat=>31}, {:month=>5, :stat=>44}, {:month=>6, :stat=>24}, {:month=>7, :stat=>35}, {:month=>8, :stat=>32}, {:month=>9, :stat=>40}, {:month=>10, :stat=>44}, {:month=>11, :stat=>53}, {:month=>12, :stat=>21}]"
"true","Streedagh Beach ","Sligo, Grange","Ireland","54.4082","","Northwest facing sandy bay, bending around to west, southwest facing, a long beach, over 2 km with sand dunes.","https://www.windfinder.com/wind-cgi/homepagestatistics.pl?STATIONSNR=ie19","[{:month=>1, :stat=>45}, {:month=>2, :stat=>37}, {:month=>3, :stat=>38}, {:month=>4, :stat=>37}, {:month=>5, :stat=>41}, {:month=>6, :stat=>29}, {:month=>7, :stat=>29}, {:month=>8, :stat=>36}, {:month=>9, :stat=>32}, {:month=>10, :stat=>34}, {:month=>11, :stat=>39}, {:month=>12, :stat=>41}]"
"true","Duncannon ","Wexford, Duncannon","Ireland","52.219","","The beach is 1.2 km long and is wide on low tide with firm smooth sand.","https://www.windfinder.com/wind-cgi/homepagestatistics.pl?STATIONSNR=ie22","[{:month=>1, :stat=>2}, {:month=>2, :stat=>1}, {:month=>3, :stat=>7}, {:month=>4, :stat=>4}, {:month=>5, :stat=>7}, {:month=>6, :stat=>3}, {:month=>7, :stat=>8}, {:month=>8, :stat=>3}, {:month=>9, :stat=>4}, {:month=>10, :stat=>5}, {:month=>11, :stat=>14}, {:month=>12, :stat=>3}]"
"true","Killiney Beach ","Shankill, Ballybrack","Ireland","53.2587","","","https://www.windfinder.com/wind-cgi/homepagestatistics.pl?STATIONSNR=ie2","[{:month=>1, :stat=>60}, {:month=>2, :stat=>56}, {:month=>3, :stat=>59}, {:month=>4, :stat=>55}, {:month=>5, :stat=>56}, {:month=>6, :stat=>50}, {:month=>7, :stat=>49}, {:month=>8, :stat=>50}, {:month=>9, :stat=>51}, {:month=>10, :stat=>54}, {:month=>11, :stat=>57}, {:month=>12, :stat=>55}]"
"true","Ballycotton ","Ballycotton","Ireland","51.8476","","Large beach of sand with seaweed and some waste litter. Enough space to launch the kite, watch the walkers on Sundays and during summers though. No shower nor toilets.","https://www.windfinder.com/wind-cgi/homepagestatistics.pl?STATIONSNR=ie23","[{:month=>1, :stat=>13}, {:month=>2, :stat=>10}, {:month=>3, :stat=>11}, {:month=>4, :stat=>16}, {:month=>5, :stat=>11}, {:month=>6, :stat=>8}, {:month=>7, :stat=>7}, {:month=>8, :stat=>6}, {:month=>9, :stat=>10}, {:month=>10, :stat=>15}, {:month=>11, :stat=>21}, {:month=>12, :stat=>9}]"
"true","Monkstown ","Dun Laoghaire","Ireland","53.2956","","Salthill/Monkstown beach opens to the north consisting of sand and large rocks. The beach is life guarded from June to August from 10:30 to 7 pm. Lots of rocks and concrete walls. Also electrical lines for the Dart (public rail transport) are directly behind the beach. Launch area is really small on high tide but runs out 300m on a low tide.","https://www.windfinder.com/wind-cgi/homepagestatistics.pl?STATIONSNR=ie2","[{:month=>1, :stat=>60}, {:month=>2, :stat=>56}, {:month=>3, :stat=>59}, {:month=>4, :stat=>55}, {:month=>5, :stat=>56}, {:month=>6, :stat=>50}, {:month=>7, :stat=>49}, {:month=>8, :stat=>50}, {:month=>9, :stat=>51}, {:month=>10, :stat=>54}, {:month=>11, :stat=>57}, {:month=>12, :stat=>55}]"
"true","Lake Como ","Colico","Italy","46.1409","9.3725","Beach partly sand and partly grass. Upwind kitebeach, downwind windsurf. The beaches are quite nice and clean but sometimes some rubbish due to storms or something else. The launch it's quite safe, some trees around, but not a problem. Some stones in the water.","https://www.windfinder.com/wind-cgi/homepagestatistics.pl?STATIONSNR=it89","[{:month=>1, :stat=>4}, {:month=>2, :stat=>8}, {:month=>3, :stat=>8}, {:month=>4, :stat=>7}, {:month=>5, :stat=>6}, {:month=>6, :stat=>4}, {:month=>7, :stat=>2}, {:month=>8, :stat=>2}, {:month=>9, :stat=>3}, {:month=>10, :stat=>4}, {:month=>11, :stat=>2}, {:month=>12, :stat=>4}]"
"true","Marina Julia ","Monfalcone, Marina Julia","Italy","45.7733","13.5294","Sand and pebbles. Enough space to safely launch and land a kite. Special kite entry and exit zone. During summer many tourists on the beach.","https://www.windfinder.com/wind-cgi/homepagestatistics.pl?STATIONSNR=it28","[{:month=>1, :stat=>29}, {:month=>2, :stat=>29}, {:month=>3, :stat=>20}, {:month=>4, :stat=>15}, {:month=>5, :stat=>8}, {:month=>6, :stat=>8}, {:month=>7, :stat=>13}, {:month=>8, :stat=>12}, {:month=>9, :stat=>17}, {:month=>10, :stat=>22}, {:month=>11, :stat=>21}, {:month=>12, :stat=>26}]"
"true","Sicily ","Mondello","Italy","38.1999","13.3288","Nice and soft sand. Long beach, but packed with tourists during summer.","https://www.windfinder.com/wind-cgi/homepagestatistics.pl?STATIONSNR=it30","[{:month=>1, :stat=>13}, {:month=>2, :stat=>19}, {:month=>3, :stat=>21}, {:month=>4, :stat=>18}, {:month=>5, :stat=>13}, {:month=>6, :stat=>9}, {:month=>7, :stat=>15}, {:month=>8, :stat=>15}, {:month=>9, :stat=>12}, {:month=>10, :stat=>6}, {:month=>11, :stat=>13}, {:month=>12, :stat=>12}]"
"true","Sardinia ","Olbia, San Teodoro","Italy","40.7859","9.6707","Wide beach with fine sand. Lots of space for landing and starting. Packed beach during holidays. Special kite zone during summer.","https://www.windfinder.com/wind-cgi/homepagestatistics.pl?STATIONSNR=it18","[{:month=>1, :stat=>31}, {:month=>2, :stat=>35}, {:month=>3, :stat=>41}, {:month=>4, :stat=>34}, {:month=>5, :stat=>35}, {:month=>6, :stat=>37}, {:month=>7, :stat=>45}, {:month=>8, :stat=>35}, {:month=>9, :stat=>28}, {:month=>10, :stat=>23}, {:month=>11, :stat=>24}, {:month=>12, :stat=>31}]"
"true","Grado Pineta ","Grado, Grado Pineta","Italy","45.6767","13.4313","","https://www.windfinder.com/wind-cgi/homepagestatistics.pl?STATIONSNR=sl1","[{:month=>1, :stat=>10}, {:month=>2, :stat=>11}, {:month=>3, :stat=>17}, {:month=>4, :stat=>12}, {:month=>5, :stat=>10}, {:month=>6, :stat=>9}, {:month=>7, :stat=>10}, {:month=>8, :stat=>8}, {:month=>9, :stat=>8}, {:month=>10, :stat=>9}, {:month=>11, :stat=>10}, {:month=>12, :stat=>11}]"
"false","Lake Garda ","Malcesine","Italy","45.8052","10.8445","Very small with rocks. You can launch only one kite a time. Not a good place for beginners. Very busy during summer.","https://www.windfinder.com/wind-cgi/homepagestatistics.pl?STATIONSNR=GERI","[{:month=>1, :stat=>23}, {:month=>2, :stat=>7}, {:month=>3, :stat=>14}, {:month=>4, :stat=>14}, {:month=>5, :stat=>18}, {:month=>6, :stat=>44}, {:month=>7, :stat=>0}, {:month=>8, :stat=>15}]"
"true","Sardinia ","Posada","Italy","40.5954","9.7544","Approx. 4km sand beach with the harbor of La Caletta in the North and a small village in the South with rocks you should avoid. The beach is in average 30 meters wide. Only sand without rocks, corals, shells. Nice spot, not crowded at all during spring and autumn. Quite save since the bay is so big and the whole beach is sandy.","https://www.windfinder.com/wind-cgi/homepagestatistics.pl?STATIONSNR=it18","[{:month=>1, :stat=>31}, {:month=>2, :stat=>35}, {:month=>3, :stat=>41}, {:month=>4, :stat=>34}, {:month=>5, :stat=>35}, {:month=>6, :stat=>37}, {:month=>7, :stat=>45}, {:month=>8, :stat=>35}, {:month=>9, :stat=>28}, {:month=>10, :stat=>23}, {:month=>11, :stat=>24}, {:month=>12, :stat=>31}]"
"false","Lago Di Resia ","Graun, Resia (Reschen), St.Valentin","Italy","46.8053","10.5368","The local kitesurfing club provides an area for launching and landing (grass). Only there it is allowed! Foil and tube zones are separated (see billboard at the spot for additional info). In spring you can use the large alluvial fan that is created by the small glacial stream.","https://www.windfinder.com/wind-cgi/homepagestatistics.pl?STATIONSNR=it60","[{:month=>1, :stat=>0}]"
"true","Sicily ","Trapani, Birgi, Marsala","Italy","37.875","12.486","No real beach, launch from the water.","https://www.windfinder.com/wind-cgi/homepagestatistics.pl?STATIONSNR=it31","[{:month=>1, :stat=>37}, {:month=>2, :stat=>42}, {:month=>3, :stat=>44}, {:month=>4, :stat=>40}, {:month=>5, :stat=>39}, {:month=>6, :stat=>35}, {:month=>7, :stat=>38}, {:month=>8, :stat=>40}, {:month=>9, :stat=>34}, {:month=>10, :stat=>29}, {:month=>11, :stat=>39}, {:month=>12, :stat=>34}]"
"true","Lake Garda ","Campione del Garda","Italy","45.7561","10.7509","Beach is little and rocky, you have to follow local rules.","https://www.windfinder.com/wind-cgi/homepagestatistics.pl?STATIONSNR=it59","[{:month=>1, :stat=>33}, {:month=>2, :stat=>33}, {:month=>3, :stat=>20}, {:month=>4, :stat=>16}, {:month=>5, :stat=>16}, {:month=>6, :stat=>10}, {:month=>7, :stat=>11}, {:month=>8, :stat=>8}, {:month=>9, :stat=>13}, {:month=>10, :stat=>14}, {:month=>11, :stat=>22}, {:month=>12, :stat=>33}]"
"true","Jurmala ","Riga","Latvia","56.9716","23.7682","Nice soft sand. Long beach with lots of space.","https://www.windfinder.com/wind-cgi/homepagestatistics.pl?STATIONSNR=le1","[{:month=>1, :stat=>22}, {:month=>2, :stat=>22}, {:month=>3, :stat=>23}, {:month=>4, :stat=>25}, {:month=>5, :stat=>23}, {:month=>6, :stat=>23}, {:month=>7, :stat=>17}, {:month=>8, :stat=>17}, {:month=>9, :stat=>15}, {:month=>10, :stat=>21}, {:month=>11, :stat=>21}, {:month=>12, :stat=>26}]"
"true","Bullji ","Riga","Latvia","57.0287","23.9834","Nice, long and sandy beach. Lots of space.","https://www.windfinder.com/wind-cgi/homepagestatistics.pl?STATIONSNR=le1","[{:month=>1, :stat=>22}, {:month=>2, :stat=>22}, {:month=>3, :stat=>23}, {:month=>4, :stat=>25}, {:month=>5, :stat=>23}, {:month=>6, :stat=>23}, {:month=>7, :stat=>17}, {:month=>8, :stat=>17}, {:month=>9, :stat=>15}, {:month=>10, :stat=>21}, {:month=>11, :stat=>21}, {:month=>12, :stat=>26}]"
"true","Pavilosta ","Pavilosta","Latvia","56.8906","21.1738","Rocky spot. Parking right at the beach. Very popular place for local windsurfers and kiteboarders to go on weekends. Enough space for everyone.","https://www.windfinder.com/wind-cgi/homepagestatistics.pl?STATIONSNR=lv4","[{:month=>1, :stat=>14}, {:month=>2, :stat=>12}, {:month=>3, :stat=>10}, {:month=>4, :stat=>10}, {:month=>5, :stat=>5}, {:month=>6, :stat=>5}, {:month=>7, :stat=>4}, {:month=>8, :stat=>5}, {:month=>9, :stat=>5}, {:month=>10, :stat=>9}, {:month=>11, :stat=>13}, {:month=>12, :stat=>16}]"
"true","Liepaja Karaosta ","Liepaja","Latvia","56.5517","20.9995","Sand and asphalt. You can park your car near the beach.","https://www.windfinder.com/wind-cgi/homepagestatistics.pl?STATIONSNR=lv2","[{:month=>1, :stat=>26}, {:month=>2, :stat=>24}, {:month=>3, :stat=>25}, {:month=>4, :stat=>23}, {:month=>5, :stat=>22}, {:month=>6, :stat=>23}, {:month=>7, :stat=>23}, {:month=>8, :stat=>24}, {:month=>9, :stat=>21}, {:month=>10, :stat=>23}, {:month=>11, :stat=>22}, {:month=>12, :stat=>31}]"
"true","Ventspils ","Ventspils","Latvia","57.387","21.5257","Long, sandy beach with lots of space.","https://www.windfinder.com/wind-cgi/homepagestatistics.pl?STATIONSNR=lv3","[{:month=>1, :stat=>32}, {:month=>2, :stat=>29}, {:month=>3, :stat=>36}, {:month=>4, :stat=>37}, {:month=>5, :stat=>29}, {:month=>6, :stat=>32}, {:month=>7, :stat=>26}, {:month=>8, :stat=>23}, {:month=>9, :stat=>26}, {:month=>10, :stat=>33}, {:month=>11, :stat=>30}, {:month=>12, :stat=>39}]"
"true","Kolkarags ","Roja, Kolka","Latvia","57.7585","22.6058","Nice soft sand on both sides of the point. Lots of space.","https://www.windfinder.com/wind-cgi/homepagestatistics.pl?STATIONSNR=lv1","[{:month=>1, :stat=>25}, {:month=>2, :stat=>19}, {:month=>3, :stat=>17}, {:month=>4, :stat=>14}, {:month=>5, :stat=>10}, {:month=>6, :stat=>12}, {:month=>7, :stat=>9}, {:month=>8, :stat=>8}, {:month=>9, :stat=>13}, {:month=>10, :stat=>20}, {:month=>11, :stat=>22}, {:month=>12, :stat=>27}]"
"true","Liepaja ","Liepaja","Latvia","56.5061","20.9914","Long sandy beach, lots of space.","https://www.windfinder.com/wind-cgi/homepagestatistics.pl?STATIONSNR=lv2","[{:month=>1, :stat=>26}, {:month=>2, :stat=>24}, {:month=>3, :stat=>25}, {:month=>4, :stat=>23}, {:month=>5, :stat=>22}, {:month=>6, :stat=>23}, {:month=>7, :stat=>23}, {:month=>8, :stat=>24}, {:month=>9, :stat=>21}, {:month=>10, :stat=>23}, {:month=>11, :stat=>22}, {:month=>12, :stat=>31}]"
"true","Kolka ","Roja, Kolka","Latvia","57.7434","22.5934","","https://www.windfinder.com/wind-cgi/homepagestatistics.pl?STATIONSNR=lv1","[{:month=>1, :stat=>25}, {:month=>2, :stat=>19}, {:month=>3, :stat=>17}, {:month=>4, :stat=>14}, {:month=>5, :stat=>10}, {:month=>6, :stat=>12}, {:month=>7, :stat=>9}, {:month=>8, :stat=>8}, {:month=>9, :stat=>13}, {:month=>10, :stat=>20}, {:month=>11, :stat=>22}, {:month=>12, :stat=>27}]"
"true","Garciems ","Garciems","Latvia","57.1136","24.189","","https://www.windfinder.com/wind-cgi/homepagestatistics.pl?STATIONSNR=le1","[{:month=>1, :stat=>22}, {:month=>2, :stat=>22}, {:month=>3, :stat=>23}, {:month=>4, :stat=>25}, {:month=>5, :stat=>23}, {:month=>6, :stat=>23}, {:month=>7, :stat=>17}, {:month=>8, :stat=>17}, {:month=>9, :stat=>15}, {:month=>10, :stat=>21}, {:month=>11, :stat=>21}, {:month=>12, :stat=>26}]"
"true","Jurkalne ","Alsunga","Latvia","57.0373","21.4019","A cliff next to the small beach.","https://www.windfinder.com/wind-cgi/homepagestatistics.pl?STATIONSNR=lv4","[{:month=>1, :stat=>14}, {:month=>2, :stat=>12}, {:month=>3, :stat=>10}, {:month=>4, :stat=>10}, {:month=>5, :stat=>5}, {:month=>6, :stat=>5}, {:month=>7, :stat=>4}, {:month=>8, :stat=>5}, {:month=>9, :stat=>5}, {:month=>10, :stat=>9}, {:month=>11, :stat=>13}, {:month=>12, :stat=>16}]"
"true","Monciskes ","Kudas, Monciskes","Lithuania","56.01","21.0745","Clean, sandy beach. Long beach with lots of space for kites to safely launch and land. In summertime lots of people sunbathing on the beach. Be careful.","https://www.windfinder.com/wind-cgi/homepagestatistics.pl?STATIONSNR=li1","[{:month=>1, :stat=>23}, {:month=>2, :stat=>24}, {:month=>3, :stat=>21}, {:month=>4, :stat=>15}, {:month=>5, :stat=>10}, {:month=>6, :stat=>10}, {:month=>7, :stat=>8}, {:month=>8, :stat=>9}, {:month=>9, :stat=>13}, {:month=>10, :stat=>26}, {:month=>11, :stat=>26}, {:month=>12, :stat=>26}]"
"true","Kunigiskes ","Kunigiskes","Lithuania","55.9523","21.0656","Nice soft sand. Enough space to safely launch and land kites.","https://www.windfinder.com/wind-cgi/homepagestatistics.pl?STATIONSNR=li1","[{:month=>1, :stat=>23}, {:month=>2, :stat=>24}, {:month=>3, :stat=>21}, {:month=>4, :stat=>15}, {:month=>5, :stat=>10}, {:month=>6, :stat=>10}, {:month=>7, :stat=>8}, {:month=>8, :stat=>9}, {:month=>9, :stat=>13}, {:month=>10, :stat=>26}, {:month=>11, :stat=>26}, {:month=>12, :stat=>26}]"
"true","Neringa ","Nida","Lithuania","55.2837","20.9763","Seaside: a 30m wide beach, white sand, no stones or rocks, during summer time a bit crowded.","https://www.windfinder.com/wind-cgi/homepagestatistics.pl?STATIONSNR=li2","[{:month=>1, :stat=>26}, {:month=>2, :stat=>22}, {:month=>3, :stat=>19}, {:month=>4, :stat=>17}, {:month=>5, :stat=>11}, {:month=>6, :stat=>13}, {:month=>7, :stat=>12}, {:month=>8, :stat=>16}, {:month=>9, :stat=>18}, {:month=>10, :stat=>25}, {:month=>11, :stat=>31}, {:month=>12, :stat=>34}]"
"true","Giruliai ","Giruliai","Lithuania","55.769","21.0779","A 30m wide beach, white sand, no stones or rocks, at summer time a bit crowded. But if there is wind, the beach becomes empty (of holiday makers).","https://www.windfinder.com/wind-cgi/homepagestatistics.pl?STATIONSNR=li2","[{:month=>1, :stat=>26}, {:month=>2, :stat=>22}, {:month=>3, :stat=>19}, {:month=>4, :stat=>17}, {:month=>5, :stat=>11}, {:month=>6, :stat=>13}, {:month=>7, :stat=>12}, {:month=>8, :stat=>16}, {:month=>9, :stat=>18}, {:month=>10, :stat=>25}, {:month=>11, :stat=>31}, {:month=>12, :stat=>34}]"
"true","Juodkrante ","Juodkrante","Lithuania","55.5444","21.0998","Not very crowded but do not kite in public beach, for tourist safety reasons.","https://www.windfinder.com/wind-cgi/homepagestatistics.pl?STATIONSNR=li2","[{:month=>1, :stat=>26}, {:month=>2, :stat=>22}, {:month=>3, :stat=>19}, {:month=>4, :stat=>17}, {:month=>5, :stat=>11}, {:month=>6, :stat=>13}, {:month=>7, :stat=>12}, {:month=>8, :stat=>16}, {:month=>9, :stat=>18}, {:month=>10, :stat=>25}, {:month=>11, :stat=>31}, {:month=>12, :stat=>34}]"
"true","Rekyva Lake ","Panevezys, Siauliai","Lithuania","55.8834","23.3046","Small sandy beach. Trees right next to it.","https://www.windfinder.com/wind-cgi/homepagestatistics.pl?STATIONSNR=li5","[{:month=>1, :stat=>31}, {:month=>2, :stat=>30}, {:month=>3, :stat=>34}, {:month=>4, :stat=>35}, {:month=>5, :stat=>25}, {:month=>6, :stat=>28}, {:month=>7, :stat=>24}, {:month=>8, :stat=>21}, {:month=>9, :stat=>23}, {:month=>10, :stat=>30}, {:month=>11, :stat=>29}, {:month=>12, :stat=>38}]"
"true","Silva Spot ","Kaunas","Lithuania","54.8998","23.8721","Small area with grass, sand and stones.","https://www.windfinder.com/wind-cgi/homepagestatistics.pl?STATIONSNR=li4","[{:month=>1, :stat=>17}, {:month=>2, :stat=>20}, {:month=>3, :stat=>22}, {:month=>4, :stat=>22}, {:month=>5, :stat=>15}, {:month=>6, :stat=>17}, {:month=>7, :stat=>13}, {:month=>8, :stat=>12}, {:month=>9, :stat=>13}, {:month=>10, :stat=>18}, {:month=>11, :stat=>19}, {:month=>12, :stat=>21}]"
"true","Rekyva Lake ","Panevezys, Siauliai","Lithuania","55.869","23.3352","Small sandy beach. Trees right next to it.","https://www.windfinder.com/wind-cgi/homepagestatistics.pl?STATIONSNR=li5","[{:month=>1, :stat=>31}, {:month=>2, :stat=>30}, {:month=>3, :stat=>34}, {:month=>4, :stat=>35}, {:month=>5, :stat=>25}, {:month=>6, :stat=>28}, {:month=>7, :stat=>24}, {:month=>8, :stat=>21}, {:month=>9, :stat=>23}, {:month=>10, :stat=>30}, {:month=>11, :stat=>29}, {:month=>12, :stat=>38}]"
"true","Elektrenai Lake ","Elektrenai, Saltiniai","Lithuania","54.7387","24.6785","Grassy beach with quiet some space.","https://www.windfinder.com/wind-cgi/homepagestatistics.pl?STATIONSNR=li3","[{:month=>1, :stat=>27}, {:month=>2, :stat=>26}, {:month=>3, :stat=>31}, {:month=>4, :stat=>28}, {:month=>5, :stat=>19}, {:month=>6, :stat=>22}, {:month=>7, :stat=>17}, {:month=>8, :stat=>19}, {:month=>9, :stat=>19}, {:month=>10, :stat=>28}, {:month=>11, :stat=>30}, {:month=>12, :stat=>31}]"
"true","Dusia Lake ","Alytus, Meteliai","Lithuania","54.2897","23.7346","Small accesses around the lake. Find one depending on the wind directions.","https://www.windfinder.com/wind-cgi/homepagestatistics.pl?STATIONSNR=pl19","[{:month=>1, :stat=>17}, {:month=>2, :stat=>17}, {:month=>3, :stat=>29}, {:month=>4, :stat=>26}, {:month=>5, :stat=>19}, {:month=>6, :stat=>21}, {:month=>7, :stat=>13}, {:month=>8, :stat=>14}, {:month=>9, :stat=>17}, {:month=>10, :stat=>17}, {:month=>11, :stat=>18}, {:month=>12, :stat=>22}]"
"true","Mellieha Bay ","Mellieha, St. Julians","Malta","35.9693","14.3516","Sandy bay, rocks on sides, and some in the middle. Very packed beach in summer. Small beach, you must be an advanced kiteboarder because beside the beach there are the road and electric wires, you have to be careful.","https://www.windfinder.com/wind-cgi/homepagestatistics.pl?STATIONSNR=mt1","[{:month=>1, :stat=>39}, {:month=>2, :stat=>45}, {:month=>3, :stat=>48}, {:month=>4, :stat=>47}, {:month=>5, :stat=>42}, {:month=>6, :stat=>26}, {:month=>7, :stat=>20}, {:month=>8, :stat=>21}, {:month=>9, :stat=>28}, {:month=>10, :stat=>26}, {:month=>11, :stat=>32}, {:month=>12, :stat=>36}]"
"false","Lacul Ghidighici ","Vatra","Moldova","","","","",""
"true","Taraklia Sea ","Taraklia","Moldova","45.9488","28.5875","","https://www.windfinder.com/wind-cgi/homepagestatistics.pl?STATIONSNR=ro4","[{:month=>1, :stat=>40}, {:month=>2, :stat=>44}, {:month=>3, :stat=>49}, {:month=>4, :stat=>46}, {:month=>5, :stat=>32}, {:month=>6, :stat=>35}, {:month=>7, :stat=>35}, {:month=>8, :stat=>38}, {:month=>9, :stat=>42}, {:month=>10, :stat=>36}, {:month=>11, :stat=>30}, {:month=>12, :stat=>34}]"
"true","Velika Plaza Ulcinj ","Ulcinj","Montenegro","41.8835","19.3155","13km long, 60m wide. Very nice, soft sand, no shells. Lots of space for launching. No buildings and obstacles.","https://www.windfinder.com/wind-cgi/homepagestatistics.pl?STATIONSNR=al1","[{:month=>1, :stat=>10}, {:month=>2, :stat=>15}, {:month=>3, :stat=>17}, {:month=>4, :stat=>13}, {:month=>5, :stat=>9}, {:month=>6, :stat=>10}, {:month=>7, :stat=>10}, {:month=>8, :stat=>12}, {:month=>9, :stat=>7}, {:month=>10, :stat=>6}, {:month=>11, :stat=>6}, {:month=>12, :stat=>9}]"
"true","Bojana River Mouth ","Ulcinj","Montenegro","41.867","19.3382","","https://www.windfinder.com/wind-cgi/homepagestatistics.pl?STATIONSNR=al1","[{:month=>1, :stat=>10}, {:month=>2, :stat=>15}, {:month=>3, :stat=>17}, {:month=>4, :stat=>13}, {:month=>5, :stat=>9}, {:month=>6, :stat=>10}, {:month=>7, :stat=>10}, {:month=>8, :stat=>12}, {:month=>9, :stat=>7}, {:month=>10, :stat=>6}, {:month=>11, :stat=>6}, {:month=>12, :stat=>9}]"
"true","Brouwersdam ","Renesse, Ouddorp","Netherlands","51.7631","3.8524","The beach itself is very wide (like 200m average even on high tide) and long maybe 2km or more. It consists out of soft sand with here and there some shells. At the water line there's a stroke of harder cleaner sand. In general it's kite friendly (if you look out for shells). Safe launching: to begin with the beach is huge, so space enough always you would say. Problem is the hard packed sand makes the beach also a Mekka for kite-buggiers and a like. Fortunately this isn't really a problem. But on very hot and steamy day's (when it mostly doesn't blow anyway), it can be crowded with people, and you have to watch out in the water and at the shore line. Most of the time there's room enough though, and you can launch and land safely. Entries: lots of them, the beach lays against a dune stroke with a road behind it, you can park all along the beach (for free), and every 100-200 m there's an entry.","https://www.windfinder.com/wind-cgi/homepagestatistics.pl?STATIONSNR=06320","[{:month=>1, :stat=>81}, {:month=>2, :stat=>80}, {:month=>3, :stat=>74}, {:month=>4, :stat=>67}, {:month=>5, :stat=>69}, {:month=>6, :stat=>65}, {:month=>7, :stat=>64}, {:month=>8, :stat=>62}, {:month=>9, :stat=>65}, {:month=>10, :stat=>80}, {:month=>11, :stat=>82}, {:month=>12, :stat=>82}]"
"true","Ijsselmeer ","Workum","Netherlands","52.9677","5.4117","Open sandy beach. Wastebaskets and other objects form a risk in gusts. As always best to launch in the direction of the water. Areas with grass to pump up the kite.","https://www.windfinder.com/wind-cgi/homepagestatistics.pl?STATIONSNR=06267","[{:month=>1, :stat=>56}, {:month=>2, :stat=>54}, {:month=>3, :stat=>56}, {:month=>4, :stat=>52}, {:month=>5, :stat=>56}, {:month=>6, :stat=>51}, {:month=>7, :stat=>50}, {:month=>8, :stat=>48}, {:month=>9, :stat=>44}, {:month=>10, :stat=>49}, {:month=>11, :stat=>54}, {:month=>12, :stat=>56}]"
"true","Ijsselmeer ","Lemmer, Oude Mirdum","Netherlands","52.8506","5.4806","Small sandy beach and big grass area. Enough space for safe starting/landing. Nice small restaurant.","https://www.windfinder.com/wind-cgi/homepagestatistics.pl?STATIONSNR=06267","[{:month=>1, :stat=>56}, {:month=>2, :stat=>54}, {:month=>3, :stat=>56}, {:month=>4, :stat=>52}, {:month=>5, :stat=>56}, {:month=>6, :stat=>51}, {:month=>7, :stat=>50}, {:month=>8, :stat=>48}, {:month=>9, :stat=>44}, {:month=>10, :stat=>49}, {:month=>11, :stat=>54}, {:month=>12, :stat=>56}]"
"true","Oostvoorne ","Oostvoorne","Netherlands","51.9074","4.0496","The beach is very huge, so launching is not a problem. With low tide you must walk a few hundred meters to reach the water. At low tide there are some wooden sticks (not many) so watch out a bit. Safe, since there is always shore. At high tide the beach can get small.","https://www.windfinder.com/wind-cgi/homepagestatistics.pl?STATIONSNR=06330","[{:month=>1, :stat=>71}, {:month=>2, :stat=>71}, {:month=>3, :stat=>67}, {:month=>4, :stat=>62}, {:month=>5, :stat=>65}, {:month=>6, :stat=>61}, {:month=>7, :stat=>63}, {:month=>8, :stat=>59}, {:month=>9, :stat=>63}, {:month=>10, :stat=>70}, {:month=>11, :stat=>73}, {:month=>12, :stat=>73}]"
"true","Breezand ","Vrouwenpolder","Netherlands","51.5877","3.631","Beach is a few hundred meters wide. Also very long beach. Soft sand with shells, so be careful not to damage your kite. Lots of space. But during high season look out for beach goers.","https://www.windfinder.com/wind-cgi/homepagestatistics.pl?STATIONSNR=06310","[{:month=>1, :stat=>61}, {:month=>2, :stat=>62}, {:month=>3, :stat=>58}, {:month=>4, :stat=>53}, {:month=>5, :stat=>54}, {:month=>6, :stat=>48}, {:month=>7, :stat=>55}, {:month=>8, :stat=>50}, {:month=>9, :stat=>49}, {:month=>10, :stat=>61}, {:month=>11, :stat=>65}, {:month=>12, :stat=>66}]"
"true","Zandvoort ","Zandvoort","Netherlands","52.3679","4.5213","All sand no rocks, can be narrow at high tide but long enough. Only crowded in the summer. Lots of beach houses.","https://www.windfinder.com/wind-cgi/homepagestatistics.pl?STATIONSNR=nl33","[{:month=>1, :stat=>74}, {:month=>2, :stat=>76}, {:month=>3, :stat=>66}, {:month=>4, :stat=>61}, {:month=>5, :stat=>64}, {:month=>6, :stat=>63}, {:month=>7, :stat=>66}, {:month=>8, :stat=>60}, {:month=>9, :stat=>59}, {:month=>10, :stat=>72}, {:month=>11, :stat=>74}, {:month=>12, :stat=>79}]"
"true","Ijmuiden ","Beverwijk, Amsterdam","Netherlands","52.4458","4.5605","Big sandy beach. This beach is the widest beach in the Netherlands. Never too crowded. If you stay at the entry of the beach, yes everybody is hanging around on a small spot (lazy bones). Just 4 minutes walking and the beach is empty. A lot of shelfs though.","https://www.windfinder.com/wind-cgi/homepagestatistics.pl?STATIONSNR=06225","[{:month=>1, :stat=>69}, {:month=>2, :stat=>70}, {:month=>3, :stat=>66}, {:month=>4, :stat=>60}, {:month=>5, :stat=>62}, {:month=>6, :stat=>60}, {:month=>7, :stat=>62}, {:month=>8, :stat=>60}, {:month=>9, :stat=>61}, {:month=>10, :stat=>67}, {:month=>11, :stat=>69}, {:month=>12, :stat=>74}]"
"true","Neeltje Jans ","Renesse, Middelburg","Netherlands","51.6289","3.688","Sandy beach. There are some shells on the sand but not much. There is room enough to safely launch your kite. With high tide however the beach becomes somewhat narrow. Entry: take the entry at the parking lot below the viaduct, not the parking lot where the wind-turbines are. Because it can be crowded there with tourists.","https://www.windfinder.com/wind-cgi/homepagestatistics.pl?STATIONSNR=06320","[{:month=>1, :stat=>81}, {:month=>2, :stat=>80}, {:month=>3, :stat=>74}, {:month=>4, :stat=>67}, {:month=>5, :stat=>69}, {:month=>6, :stat=>65}, {:month=>7, :stat=>64}, {:month=>8, :stat=>62}, {:month=>9, :stat=>65}, {:month=>10, :stat=>80}, {:month=>11, :stat=>82}, {:month=>12, :stat=>82}]"
"true","Noordwijk ","Leiden, Noordwijk","Netherlands","52.2356","4.4202","Sandy beach for miles and miles. But it is not allowed to kite in front of the two boulevards, except for the spot of the surf club, on the south boulevard. Also miles of beach left to the south and to the north.","https://www.windfinder.com/wind-cgi/homepagestatistics.pl?STATIONSNR=nl2","[{:month=>1, :stat=>43}, {:month=>2, :stat=>49}, {:month=>3, :stat=>47}, {:month=>4, :stat=>50}, {:month=>5, :stat=>45}, {:month=>6, :stat=>48}, {:month=>7, :stat=>47}, {:month=>8, :stat=>39}, {:month=>9, :stat=>37}, {:month=>10, :stat=>40}, {:month=>11, :stat=>38}, {:month=>12, :stat=>49}]"
"true","Grevelingenmeer ","Bruinisse, Oude Tonge","Netherlands","51.6789","4.1322","Fairly large grass strip, which is easy to reach via the parking lot (it's next to it). At the waters edge there are rocks (wear shoes!). The grass allows to launch safely, in most wind directions. Some areas with small piece of grass, sharp rock and then the water with the same sharp rocks on the bottom.","https://www.windfinder.com/wind-cgi/homepagestatistics.pl?STATIONSNR=nl61","[{:month=>1, :stat=>13}, {:month=>2, :stat=>17}, {:month=>3, :stat=>16}, {:month=>4, :stat=>9}, {:month=>5, :stat=>6}, {:month=>6, :stat=>11}, {:month=>7, :stat=>16}, {:month=>8, :stat=>8}, {:month=>9, :stat=>7}, {:month=>10, :stat=>5}, {:month=>11, :stat=>16}, {:month=>12, :stat=>20}]"
"true","Solastranden ","Sola","Norway","58.8863","5.602","Nice and sandy beach. Enough space. Launching north of the Sola Beach Hotel only. Never further south due to the airstrip.","https://www.windfinder.com/wind-cgi/homepagestatistics.pl?STATIONSNR=no9","[{:month=>1, :stat=>44}, {:month=>2, :stat=>40}, {:month=>3, :stat=>42}, {:month=>4, :stat=>44}, {:month=>5, :stat=>48}, {:month=>6, :stat=>42}, {:month=>7, :stat=>39}, {:month=>8, :stat=>39}, {:month=>9, :stat=>40}, {:month=>10, :stat=>39}, {:month=>11, :stat=>40}, {:month=>12, :stat=>39}]"
"true","Larkollen ","Moss, Larkollen","Norway","59.3059","10.6901","Mostly sand, some rocks to the west. Some shells. Can be rather crowded on good days. You can land your kite behind some trees.","https://www.windfinder.com/wind-cgi/homepagestatistics.pl?STATIONSNR=no20","[{:month=>1, :stat=>19}, {:month=>2, :stat=>18}, {:month=>3, :stat=>22}, {:month=>4, :stat=>26}, {:month=>5, :stat=>27}, {:month=>6, :stat=>26}, {:month=>7, :stat=>24}, {:month=>8, :stat=>20}, {:month=>9, :stat=>24}, {:month=>10, :stat=>20}, {:month=>11, :stat=>21}, {:month=>12, :stat=>22}]"
"true","Borestrand ","Bore","Norway","58.8012","5.5481","Beautiful, soft sand. Lots of space for safe launch and landings. Behind the beach there are sand-dunes with grass.","https://www.windfinder.com/wind-cgi/homepagestatistics.pl?STATIONSNR=no9","[{:month=>1, :stat=>44}, {:month=>2, :stat=>40}, {:month=>3, :stat=>42}, {:month=>4, :stat=>44}, {:month=>5, :stat=>48}, {:month=>6, :stat=>42}, {:month=>7, :stat=>39}, {:month=>8, :stat=>39}, {:month=>9, :stat=>40}, {:month=>10, :stat=>39}, {:month=>11, :stat=>40}, {:month=>12, :stat=>39}]"
"true","Sande ","Sande","Norway","59.021","5.5923","Thin sandy beach. Enough space to launch.","https://www.windfinder.com/wind-cgi/homepagestatistics.pl?STATIONSNR=no43","[{:month=>1, :stat=>7}, {:month=>2, :stat=>6}, {:month=>3, :stat=>6}, {:month=>4, :stat=>4}, {:month=>5, :stat=>7}, {:month=>6, :stat=>5}, {:month=>7, :stat=>3}, {:month=>8, :stat=>5}, {:month=>9, :stat=>5}, {:month=>10, :stat=>9}, {:month=>11, :stat=>7}, {:month=>12, :stat=>9}]"
"false","Verket ","Drammen, Svelvik, Verket","Norway","59.6099","10.4147","","https://www.windfinder.com/wind-cgi/homepagestatistics.pl?STATIONSNR=no42","[{:month=>1, :stat=>0}, {:month=>2, :stat=>0}, {:month=>3, :stat=>0}, {:month=>4, :stat=>0}, {:month=>5, :stat=>0}, {:month=>6, :stat=>0}, {:month=>7, :stat=>0}]"
"true","Hafrsfjord ","Stavanger","Norway","58.9246","5.6528","This is a Fjord situated in both residential and agricultural land. There are a number of small man made beaches to launch from. If the wind is light be careful as it may not be possible to land on a beach and you may need to ditch your kite in the water. Lots of man made hazards such as moored boats, jetties and houses. Would not go there if you are a kitesurf beginner.","https://www.windfinder.com/wind-cgi/homepagestatistics.pl?STATIONSNR=no43","[{:month=>1, :stat=>7}, {:month=>2, :stat=>6}, {:month=>3, :stat=>6}, {:month=>4, :stat=>4}, {:month=>5, :stat=>7}, {:month=>6, :stat=>5}, {:month=>7, :stat=>3}, {:month=>8, :stat=>5}, {:month=>9, :stat=>5}, {:month=>10, :stat=>9}, {:month=>11, :stat=>7}, {:month=>12, :stat=>9}]"
"true","Orrestranda ","Orre","Norway","58.7402","5.5122","Nice and soft sand. Big space to lay out your kite and lines and to launch and land safely. Can be a bit crowed on the warmest days in summer.","https://www.windfinder.com/wind-cgi/homepagestatistics.pl?STATIONSNR=no9","[{:month=>1, :stat=>44}, {:month=>2, :stat=>40}, {:month=>3, :stat=>42}, {:month=>4, :stat=>44}, {:month=>5, :stat=>48}, {:month=>6, :stat=>42}, {:month=>7, :stat=>39}, {:month=>8, :stat=>39}, {:month=>9, :stat=>40}, {:month=>10, :stat=>39}, {:month=>11, :stat=>40}, {:month=>12, :stat=>39}]"
"false","Persfjorden ","Persfjord","Norway","","","","",""
"true","Akrasanden ","Akrahamn","Norway","59.2495","5.1943","Medium sized, sandy beach with rocks.","https://www.windfinder.com/wind-cgi/homepagestatistics.pl?STATIONSNR=no16","[{:month=>1, :stat=>60}, {:month=>2, :stat=>53}, {:month=>3, :stat=>51}, {:month=>4, :stat=>49}, {:month=>5, :stat=>51}, {:month=>6, :stat=>44}, {:month=>7, :stat=>46}, {:month=>8, :stat=>50}, {:month=>9, :stat=>55}, {:month=>10, :stat=>55}, {:month=>11, :stat=>58}, {:month=>12, :stat=>59}]"
"true","Hamresanden ","Hamre, Hamresand","Norway","58.1907","8.07","Very nice sandy beach with a nice launching spot. Plenty of launching and landing room. Some rocks by the seaside make most bathers prefer the more secluded inner beach. Even during summer. The beach is shallow for very long and then suddenly drops. Watch out for shells. If you spend some time walking upwind, it is recommended that you use shoes all year round to prevent cuts in the foot sole. Two beaches downwind exit points. The first right next to the launching spot, the next in the inner bay by the road. This one has a nice grassy area for landing.","https://www.windfinder.com/wind-cgi/homepagestatistics.pl?STATIONSNR=no13","[{:month=>1, :stat=>28}, {:month=>2, :stat=>27}, {:month=>3, :stat=>31}, {:month=>4, :stat=>30}, {:month=>5, :stat=>33}, {:month=>6, :stat=>29}, {:month=>7, :stat=>28}, {:month=>8, :stat=>24}, {:month=>9, :stat=>25}, {:month=>10, :stat=>24}, {:month=>11, :stat=>29}, {:month=>12, :stat=>28}]"
"true","Cypel ","Rewa","Poland","54.636","18.5148","The beach in Rewa is very nice and it's a real attraction of the region with its national park It's a 1 km long sandy peninsula. The spot is extremely safe with its open space and no trees in surroundings. There is a lot of space to launch and land a kite. The beach is sandy but after storms might occur pebbles.","https://www.windfinder.com/wind-cgi/homepagestatistics.pl?STATIONSNR=pl6","[{:month=>1, :stat=>26}, {:month=>2, :stat=>22}, {:month=>3, :stat=>19}, {:month=>4, :stat=>11}, {:month=>5, :stat=>8}, {:month=>6, :stat=>13}, {:month=>7, :stat=>11}, {:month=>8, :stat=>11}, {:month=>9, :stat=>12}, {:month=>10, :stat=>21}, {:month=>11, :stat=>24}, {:month=>12, :stat=>29}]"
"true","Hel ","Hel, Jastarnia, Cha?upy","Poland","54.7645","18.4933","The best sand, very fine and soft, no rocks, no shells, no pebbles, no dangerous things in the water. The beaches are very big and wide so there is no problem with kite landing or launching. It's a bay which can be used in any wind direction if you have a car. If you don't than you can always chose between bay or see. On the sea side the beach is large enough to prepare your gear to launch - on the gulf side the situation isn't so good. It depends on which camp you are at. Very crowded in summer time.","https://www.windfinder.com/wind-cgi/homepagestatistics.pl?STATIONSNR=pl6","[{:month=>1, :stat=>26}, {:month=>2, :stat=>22}, {:month=>3, :stat=>19}, {:month=>4, :stat=>11}, {:month=>5, :stat=>8}, {:month=>6, :stat=>13}, {:month=>7, :stat=>11}, {:month=>8, :stat=>11}, {:month=>9, :stat=>12}, {:month=>10, :stat=>21}, {:month=>11, :stat=>24}, {:month=>12, :stat=>29}]"
"true","Hel ","Puck","Poland","54.7588","18.5102","Nice and soft sands on bay side and seaside beach. Lots of space on the ocean side. Small beach on the bay side, but lots of shallow water, so no problem to launch from the water.","https://www.windfinder.com/wind-cgi/homepagestatistics.pl?STATIONSNR=pl6","[{:month=>1, :stat=>26}, {:month=>2, :stat=>22}, {:month=>3, :stat=>19}, {:month=>4, :stat=>11}, {:month=>5, :stat=>8}, {:month=>6, :stat=>13}, {:month=>7, :stat=>11}, {:month=>8, :stat=>11}, {:month=>9, :stat=>12}, {:month=>10, :stat=>21}, {:month=>11, :stat=>24}, {:month=>12, :stat=>29}]"
"true","Swinoujscie ","Swinoujscie","Poland","53.9237","14.2772","Long, sandy beach. Packed in summer.","https://www.windfinder.com/wind-cgi/homepagestatistics.pl?STATIONSNR=pl15","[{:month=>1, :stat=>10}, {:month=>2, :stat=>15}, {:month=>3, :stat=>20}, {:month=>4, :stat=>22}, {:month=>5, :stat=>19}, {:month=>6, :stat=>15}, {:month=>7, :stat=>16}, {:month=>8, :stat=>14}, {:month=>9, :stat=>16}, {:month=>10, :stat=>10}, {:month=>11, :stat=>8}, {:month=>12, :stat=>9}]"
"true","Jezioro Lebsko ","Leba","Poland","54.7311","17.5269","Grass with a little bit of sand.","https://www.windfinder.com/wind-cgi/homepagestatistics.pl?STATIONSNR=pl2","[{:month=>1, :stat=>39}, {:month=>2, :stat=>39}, {:month=>3, :stat=>46}, {:month=>4, :stat=>41}, {:month=>5, :stat=>39}, {:month=>6, :stat=>43}, {:month=>7, :stat=>42}, {:month=>8, :stat=>38}, {:month=>9, :stat=>35}, {:month=>10, :stat=>35}, {:month=>11, :stat=>35}, {:month=>12, :stat=>42}]"
"true","Jezioro Miedwie ","Stargard Szczecinski","Poland","53.229","14.911","Small sandy beach with grass area next to it.","https://www.windfinder.com/wind-cgi/homepagestatistics.pl?STATIONSNR=pl1","[{:month=>1, :stat=>28}, {:month=>2, :stat=>27}, {:month=>3, :stat=>24}, {:month=>4, :stat=>24}, {:month=>5, :stat=>21}, {:month=>6, :stat=>19}, {:month=>7, :stat=>17}, {:month=>8, :stat=>15}, {:month=>9, :stat=>17}, {:month=>10, :stat=>19}, {:month=>11, :stat=>21}, {:month=>12, :stat=>27}]"
"true","Hel ","Wladyslawowo","Poland","54.777","18.4556","Nice and soft sands on bayside and seaside beach. Lots of space on the ocean side. Small beach on the bay side, but lots of shallow water, so no problem to launch from the water.","https://www.windfinder.com/wind-cgi/homepagestatistics.pl?STATIONSNR=pl6","[{:month=>1, :stat=>26}, {:month=>2, :stat=>22}, {:month=>3, :stat=>19}, {:month=>4, :stat=>11}, {:month=>5, :stat=>8}, {:month=>6, :stat=>13}, {:month=>7, :stat=>11}, {:month=>8, :stat=>11}, {:month=>9, :stat=>12}, {:month=>10, :stat=>21}, {:month=>11, :stat=>24}, {:month=>12, :stat=>29}]"
"true","Kaliszanskie ","Wagrowiec","Poland","52.8803","17.122","Beach crowded during summer, almost impossible to launch from the main beach. Very few other places to launch, possible on western shore. Lots of bushes and cane all around.","https://www.windfinder.com/wind-cgi/homepagestatistics.pl?STATIONSNR=pl9","[{:month=>1, :stat=>26}, {:month=>2, :stat=>27}, {:month=>3, :stat=>32}, {:month=>4, :stat=>30}, {:month=>5, :stat=>27}, {:month=>6, :stat=>28}, {:month=>7, :stat=>26}, {:month=>8, :stat=>21}, {:month=>9, :stat=>23}, {:month=>10, :stat=>21}, {:month=>11, :stat=>23}, {:month=>12, :stat=>25}]"
"true","Miedzyzdroje ","Miedzyzdroje","Poland","53.9316","14.4446","The beach is wide and 15 km long with beautiful sand, almost no shells, and some small stones, very clean. The access is free of charge. Launch and land kites are easy and safe, however could be crowded sometimes.","https://www.windfinder.com/wind-cgi/homepagestatistics.pl?STATIONSNR=pl15","[{:month=>1, :stat=>10}, {:month=>2, :stat=>15}, {:month=>3, :stat=>20}, {:month=>4, :stat=>22}, {:month=>5, :stat=>19}, {:month=>6, :stat=>15}, {:month=>7, :stat=>16}, {:month=>8, :stat=>14}, {:month=>9, :stat=>16}, {:month=>10, :stat=>10}, {:month=>11, :stat=>8}, {:month=>12, :stat=>9}]"
"true","Zalew Zegrzynski ","Zegrze","Poland","52.4457","21.0498","","https://www.windfinder.com/wind-cgi/homepagestatistics.pl?STATIONSNR=pl8","[{:month=>1, :stat=>25}, {:month=>2, :stat=>27}, {:month=>3, :stat=>35}, {:month=>4, :stat=>27}, {:month=>5, :stat=>23}, {:month=>6, :stat=>27}, {:month=>7, :stat=>23}, {:month=>8, :stat=>19}, {:month=>9, :stat=>20}, {:month=>10, :stat=>22}, {:month=>11, :stat=>22}, {:month=>12, :stat=>25}]"
"false","Alvor ","Alvor","Portugal","37.1221","","Large beach, almost desert beach. Access mainly by boat. White sand! Big pier to the west.","https://www.windfinder.com/wind-cgi/homepagestatistics.pl?STATIONSNR=pt23","[{:month=>1, :stat=>0}]"
"true","Guincho ","Cascais","Portugal","38.7333","","Guincho is fabulous. It looks a bit scary when seen from the sea because of the rocky surroundings. This is good because people respect it and there are very little accidents. Rocks in each side and at the center of the beach. The beach is very deep and wide and there is lots of free space at the beach because beach crowd goes away from the strong wind. One exit at each end. There aren't much shells, no concrete and no grass. You have enough space to launch your kite with safety. There are no special entries, you just drive there along the road, stop your car on the side way, and walk to the beach!","https://www.windfinder.com/wind-cgi/homepagestatistics.pl?STATIONSNR=pt17","[{:month=>1, :stat=>30}, {:month=>2, :stat=>41}, {:month=>3, :stat=>42}, {:month=>4, :stat=>39}, {:month=>5, :stat=>40}, {:month=>6, :stat=>39}, {:month=>7, :stat=>49}, {:month=>8, :stat=>46}, {:month=>9, :stat=>35}, {:month=>10, :stat=>31}, {:month=>11, :stat=>33}, {:month=>12, :stat=>32}]"
"true","Lagoa ","Costa Caparica","Portugal","38.5088","","Normal sand. Kite spot near the sea, windsurfing spot in the middle.","https://www.windfinder.com/wind-cgi/homepagestatistics.pl?STATIONSNR=pt27","[{:month=>1, :stat=>2}, {:month=>2, :stat=>4}, {:month=>3, :stat=>7}, {:month=>4, :stat=>3}, {:month=>5, :stat=>6}, {:month=>6, :stat=>5}, {:month=>7, :stat=>8}, {:month=>8, :stat=>6}, {:month=>9, :stat=>3}, {:month=>10, :stat=>1}, {:month=>11, :stat=>2}, {:month=>12, :stat=>1}]"
"true","Ilha ","Faro","Portugal","37.0073","","Nice beach with lots of space. In summer time you must walk more to the left and you have almost the beach only for you, it is a really good spot. No problems to launch the kite.","https://www.windfinder.com/wind-cgi/homepagestatistics.pl?STATIONSNR=pt1","[{:month=>1, :stat=>29}, {:month=>2, :stat=>40}, {:month=>3, :stat=>43}, {:month=>4, :stat=>43}, {:month=>5, :stat=>40}, {:month=>6, :stat=>36}, {:month=>7, :stat=>30}, {:month=>8, :stat=>27}, {:month=>9, :stat=>28}, {:month=>10, :stat=>31}, {:month=>11, :stat=>29}, {:month=>12, :stat=>32}]"
"true","Peniche ","Peniche","Portugal","39.362","","Big sandy beach with lots of space.","https://www.windfinder.com/wind-cgi/homepagestatistics.pl?STATIONSNR=pt10","[{:month=>1, :stat=>28}, {:month=>2, :stat=>46}, {:month=>3, :stat=>42}, {:month=>4, :stat=>24}, {:month=>5, :stat=>32}, {:month=>6, :stat=>26}, {:month=>7, :stat=>46}, {:month=>8, :stat=>12}, {:month=>9, :stat=>27}, {:month=>10, :stat=>32}, {:month=>11, :stat=>41}, {:month=>12, :stat=>30}]"
"true","Nova Vaga ","Costa da Caparica","Portugal","38.5982","","Awesome beach, soft sand without any kind of rock, shells or pebbles, a lot of space so all the crowd can ride safely. Big sand dunes to get to the sea front and about 50 meters of sand from the dunes to the water front.","https://www.windfinder.com/wind-cgi/homepagestatistics.pl?STATIONSNR=pt27","[{:month=>1, :stat=>2}, {:month=>2, :stat=>4}, {:month=>3, :stat=>7}, {:month=>4, :stat=>3}, {:month=>5, :stat=>6}, {:month=>6, :stat=>5}, {:month=>7, :stat=>8}, {:month=>8, :stat=>6}, {:month=>9, :stat=>3}, {:month=>10, :stat=>1}, {:month=>11, :stat=>2}, {:month=>12, :stat=>1}]"
"true","Gaia","Porto","Portugal","41.1154","","Nice soft beach with white sand and lots of space near the pear. North side with rocks and perfect waves.","https://www.windfinder.com/wind-cgi/homepagestatistics.pl?STATIONSNR=pt24","[{:month=>1, :stat=>10}, {:month=>2, :stat=>15}, {:month=>3, :stat=>10}, {:month=>4, :stat=>6}, {:month=>5, :stat=>6}, {:month=>6, :stat=>3}, {:month=>7, :stat=>2}, {:month=>8, :stat=>2}, {:month=>9, :stat=>5}, {:month=>10, :stat=>12}, {:month=>11, :stat=>9}, {:month=>12, :stat=>12}]"
"true","Praia ","Vilamoura","Portugal","37.0761","","Nice large beach with enough space to launch safely.","https://www.windfinder.com/wind-cgi/homepagestatistics.pl?STATIONSNR=pt1","[{:month=>1, :stat=>29}, {:month=>2, :stat=>40}, {:month=>3, :stat=>43}, {:month=>4, :stat=>43}, {:month=>5, :stat=>40}, {:month=>6, :stat=>36}, {:month=>7, :stat=>30}, {:month=>8, :stat=>27}, {:month=>9, :stat=>28}, {:month=>10, :stat=>31}, {:month=>11, :stat=>29}, {:month=>12, :stat=>32}]"
"true","Carcavelos ","Carcavelos","Portugal","38.6792","","Nice sand, large area for kite landing in winter with low tide. Be careful with road proximity. Watch for the fortress as well.","https://www.windfinder.com/wind-cgi/homepagestatistics.pl?STATIONSNR=pt27","[{:month=>1, :stat=>2}, {:month=>2, :stat=>4}, {:month=>3, :stat=>7}, {:month=>4, :stat=>3}, {:month=>5, :stat=>6}, {:month=>6, :stat=>5}, {:month=>7, :stat=>8}, {:month=>8, :stat=>6}, {:month=>9, :stat=>3}, {:month=>10, :stat=>1}, {:month=>11, :stat=>2}, {:month=>12, :stat=>1}]"
"true","Foz ","Caldas da Rainha","Portugal","39.4318","","Big sandy beach. Lots of space.","https://www.windfinder.com/wind-cgi/homepagestatistics.pl?STATIONSNR=pt10","[{:month=>1, :stat=>28}, {:month=>2, :stat=>46}, {:month=>3, :stat=>42}, {:month=>4, :stat=>24}, {:month=>5, :stat=>32}, {:month=>6, :stat=>26}, {:month=>7, :stat=>46}, {:month=>8, :stat=>12}, {:month=>9, :stat=>27}, {:month=>10, :stat=>32}, {:month=>11, :stat=>41}, {:month=>12, :stat=>30}]"
"true","Kazeboo ","Constanta","Romania","44.2782","28.6218","Nice sand, many hotels, good resort at Black See, crowded during season.","https://www.windfinder.com/wind-cgi/homepagestatistics.pl?STATIONSNR=ro3","[{:month=>1, :stat=>8}, {:month=>2, :stat=>5}, {:month=>3, :stat=>4}, {:month=>4, :stat=>4}, {:month=>5, :stat=>2}, {:month=>6, :stat=>2}, {:month=>7, :stat=>1}, {:month=>8, :stat=>1}, {:month=>9, :stat=>3}, {:month=>10, :stat=>3}, {:month=>11, :stat=>3}, {:month=>12, :stat=>6}]"
"true","Navodari Kite Beach ","Constanta, Navodari","Romania","44.3117","28.6313","","https://www.windfinder.com/wind-cgi/homepagestatistics.pl?STATIONSNR=ro3","[{:month=>1, :stat=>8}, {:month=>2, :stat=>5}, {:month=>3, :stat=>4}, {:month=>4, :stat=>4}, {:month=>5, :stat=>2}, {:month=>6, :stat=>2}, {:month=>7, :stat=>1}, {:month=>8, :stat=>1}, {:month=>9, :stat=>3}, {:month=>10, :stat=>3}, {:month=>11, :stat=>3}, {:month=>12, :stat=>6}]"
"true","Lacul Morii ","Bucharest","Romania","44.4544","26.0285","Artificial lake inside Bucharest, no beach, only cement construction around. You can launch and land the kite from the water.","https://www.windfinder.com/wind-cgi/homepagestatistics.pl?STATIONSNR=ro5","[{:month=>1, :stat=>10}, {:month=>2, :stat=>17}, {:month=>3, :stat=>20}, {:month=>4, :stat=>19}, {:month=>5, :stat=>9}, {:month=>6, :stat=>5}, {:month=>7, :stat=>6}, {:month=>8, :stat=>4}, {:month=>9, :stat=>9}, {:month=>10, :stat=>9}, {:month=>11, :stat=>8}, {:month=>12, :stat=>11}]"
"true","Vama Veche ","Mangalia, Vama Veche","Romania","43.7549","28.5742","Sandy beach. Crowded in summer.","https://www.windfinder.com/wind-cgi/homepagestatistics.pl?STATIONSNR=bg3","[{:month=>1, :stat=>55}, {:month=>2, :stat=>49}, {:month=>3, :stat=>58}, {:month=>4, :stat=>46}, {:month=>5, :stat=>39}, {:month=>6, :stat=>29}, {:month=>7, :stat=>45}, {:month=>8, :stat=>56}, {:month=>9, :stat=>48}, {:month=>10, :stat=>48}, {:month=>11, :stat=>41}, {:month=>12, :stat=>62}]"
"true","Mangalia ","Mangalia","Romania","43.8115","28.5868","The beach is very wide and has designated places for sports area and sunbathing area.","https://www.windfinder.com/wind-cgi/homepagestatistics.pl?STATIONSNR=ro3","[{:month=>1, :stat=>8}, {:month=>2, :stat=>5}, {:month=>3, :stat=>4}, {:month=>4, :stat=>4}, {:month=>5, :stat=>2}, {:month=>6, :stat=>2}, {:month=>7, :stat=>1}, {:month=>8, :stat=>1}, {:month=>9, :stat=>3}, {:month=>10, :stat=>3}, {:month=>11, :stat=>3}, {:month=>12, :stat=>6}]"
"true","Sulina ","Sulina","Romania","45.1443","29.6833","Wind is quite strong on this part of the Black Sea Beach side.","https://www.windfinder.com/wind-cgi/homepagestatistics.pl?STATIONSNR=ro4","[{:month=>1, :stat=>40}, {:month=>2, :stat=>44}, {:month=>3, :stat=>49}, {:month=>4, :stat=>46}, {:month=>5, :stat=>32}, {:month=>6, :stat=>35}, {:month=>7, :stat=>35}, {:month=>8, :stat=>38}, {:month=>9, :stat=>42}, {:month=>10, :stat=>36}, {:month=>11, :stat=>30}, {:month=>12, :stat=>34}]"
"true","Corbu ","Navodari","Romania","44.3749","28.7094","","https://www.windfinder.com/wind-cgi/homepagestatistics.pl?STATIONSNR=ro1","[{:month=>1, :stat=>39}, {:month=>2, :stat=>42}, {:month=>3, :stat=>46}, {:month=>4, :stat=>40}, {:month=>5, :stat=>30}, {:month=>6, :stat=>28}, {:month=>7, :stat=>27}, {:month=>8, :stat=>29}, {:month=>9, :stat=>35}, {:month=>10, :stat=>36}, {:month=>11, :stat=>30}, {:month=>12, :stat=>36}]"
"true","Siutghiol Lake ","Mamaia","Romania","44.2371","28.6205","Siutghiol Lake is bordering on the north side Mamaia Beach City and the kiters/surfers can enjoy the Black Sea beach few hundred meters away from the lake.","https://www.windfinder.com/wind-cgi/homepagestatistics.pl?STATIONSNR=ro3","[{:month=>1, :stat=>8}, {:month=>2, :stat=>5}, {:month=>3, :stat=>4}, {:month=>4, :stat=>4}, {:month=>5, :stat=>2}, {:month=>6, :stat=>2}, {:month=>7, :stat=>1}, {:month=>8, :stat=>1}, {:month=>9, :stat=>3}, {:month=>10, :stat=>3}, {:month=>11, :stat=>3}, {:month=>12, :stat=>6}]"
"true","Razim Lake Kitebeach ","Jurilovca","Romania","44.7567","28.9423","","https://www.windfinder.com/wind-cgi/homepagestatistics.pl?STATIONSNR=ro4","[{:month=>1, :stat=>40}, {:month=>2, :stat=>44}, {:month=>3, :stat=>49}, {:month=>4, :stat=>46}, {:month=>5, :stat=>32}, {:month=>6, :stat=>35}, {:month=>7, :stat=>35}, {:month=>8, :stat=>38}, {:month=>9, :stat=>42}, {:month=>10, :stat=>36}, {:month=>11, :stat=>30}, {:month=>12, :stat=>34}]"
"true","Mihailesti Lake ","Mihailesti","Romania","44.3286","25.9276","The area is rural type with no villages close by, some parts of the shore has sand, other parts have grass. It's usually used for weekend picnics and of course many kiters or windsurfers from the area.","https://www.windfinder.com/wind-cgi/homepagestatistics.pl?STATIONSNR=ro5","[{:month=>1, :stat=>10}, {:month=>2, :stat=>17}, {:month=>3, :stat=>20}, {:month=>4, :stat=>19}, {:month=>5, :stat=>9}, {:month=>6, :stat=>5}, {:month=>7, :stat=>6}, {:month=>8, :stat=>4}, {:month=>9, :stat=>9}, {:month=>10, :stat=>9}, {:month=>11, :stat=>8}, {:month=>12, :stat=>11}]"
"true","Krym ","Olenevka","Russia","45.374","32.5152","","https://www.windfinder.com/wind-cgi/homepagestatistics.pl?STATIONSNR=ua3","[{:month=>1, :stat=>38}, {:month=>2, :stat=>47}, {:month=>3, :stat=>41}, {:month=>4, :stat=>40}, {:month=>5, :stat=>22}, {:month=>6, :stat=>24}, {:month=>7, :stat=>21}, {:month=>8, :stat=>27}, {:month=>9, :stat=>33}, {:month=>10, :stat=>36}, {:month=>11, :stat=>36}, {:month=>12, :stat=>41}]"
"true","Plesheevo Lake ","Pereslavl-Zalesskyi","Russia","56.7637","38.7825","The main kite beach is soft grass. There is enough place for launch the kite and for beginners.","https://www.windfinder.com/wind-cgi/homepagestatistics.pl?STATIONSNR=ru5","[{:month=>1, :stat=>21}, {:month=>2, :stat=>25}, {:month=>3, :stat=>36}, {:month=>4, :stat=>36}, {:month=>5, :stat=>31}, {:month=>6, :stat=>30}, {:month=>7, :stat=>23}, {:month=>8, :stat=>25}, {:month=>9, :stat=>24}, {:month=>10, :stat=>29}, {:month=>11, :stat=>26}, {:month=>12, :stat=>30}]"
"true","Doljanka ","Eysk, Dolzhanskaya","Russia","46.6869","37.7293","On summer months, holidays or special events beach can be crowded.","https://www.windfinder.com/wind-cgi/homepagestatistics.pl?STATIONSNR=ua5","[{:month=>1, :stat=>37}, {:month=>2, :stat=>45}, {:month=>3, :stat=>51}, {:month=>4, :stat=>44}, {:month=>5, :stat=>30}, {:month=>6, :stat=>30}, {:month=>7, :stat=>28}, {:month=>8, :stat=>29}, {:month=>9, :stat=>35}, {:month=>10, :stat=>38}, {:month=>11, :stat=>38}, {:month=>12, :stat=>40}]"
"true","Kiziltashsky Liman ","Blagoveschenka","Russia","45.0797","36.9977","There is a beach 100 meters from the Liman (salty lake), andit is a Black Sea beach, very wide and sandy. Liman it has lots of places for a launch. Just pick your launch depending on the wind conditions.","https://www.windfinder.com/wind-cgi/homepagestatistics.pl?STATIONSNR=ru2","[{:month=>1, :stat=>46}, {:month=>2, :stat=>58}, {:month=>3, :stat=>52}, {:month=>4, :stat=>49}, {:month=>5, :stat=>37}, {:month=>6, :stat=>34}, {:month=>7, :stat=>31}, {:month=>8, :stat=>36}, {:month=>9, :stat=>41}, {:month=>10, :stat=>42}, {:month=>11, :stat=>43}, {:month=>12, :stat=>41}]"
"true","Voronezh ","Voronezh","Russia","51.6965","39.2564","Small sandy beach with some grass and trees. There is enough space for launch, but this beach is not for kite beginners.","https://www.windfinder.com/wind-cgi/homepagestatistics.pl?STATIONSNR=ru6","[{:month=>1, :stat=>14}, {:month=>2, :stat=>24}, {:month=>3, :stat=>29}, {:month=>4, :stat=>28}, {:month=>5, :stat=>21}, {:month=>6, :stat=>21}, {:month=>7, :stat=>18}, {:month=>8, :stat=>13}, {:month=>9, :stat=>18}, {:month=>10, :stat=>18}, {:month=>11, :stat=>19}, {:month=>12, :stat=>23}]"
"true","KiteBeach Kaliningrad ","Mechta","Russia","54.6344","20.2891","Medium sized beach with sand and grass.","https://www.windfinder.com/wind-cgi/homepagestatistics.pl?STATIONSNR=ru1","[{:month=>1, :stat=>36}, {:month=>2, :stat=>37}, {:month=>3, :stat=>39}, {:month=>4, :stat=>36}, {:month=>5, :stat=>27}, {:month=>6, :stat=>29}, {:month=>7, :stat=>27}, {:month=>8, :stat=>25}, {:month=>9, :stat=>26}, {:month=>10, :stat=>30}, {:month=>11, :stat=>34}, {:month=>12, :stat=>39}]"
"true","Voronezh River ","Voronezh","Russia","51.7241","39.2387","","https://www.windfinder.com/wind-cgi/homepagestatistics.pl?STATIONSNR=ru6","[{:month=>1, :stat=>14}, {:month=>2, :stat=>24}, {:month=>3, :stat=>29}, {:month=>4, :stat=>28}, {:month=>5, :stat=>21}, {:month=>6, :stat=>21}, {:month=>7, :stat=>18}, {:month=>8, :stat=>13}, {:month=>9, :stat=>18}, {:month=>10, :stat=>18}, {:month=>11, :stat=>19}, {:month=>12, :stat=>23}]"
"true","Kurshskaya Kosa ","Nida (Lithuania), Morskoye","Russia","55.2312","20.9135","Long sand beach on the sea with little people in May and September, more crowded in June to August. Suitable for kiting on the whole sandbar. On the gulfside certain sand spots of about 30-50 m width. Good beach only in Morskoye.","https://www.windfinder.com/wind-cgi/homepagestatistics.pl?STATIONSNR=ru1","[{:month=>1, :stat=>36}, {:month=>2, :stat=>37}, {:month=>3, :stat=>39}, {:month=>4, :stat=>36}, {:month=>5, :stat=>27}, {:month=>6, :stat=>29}, {:month=>7, :stat=>27}, {:month=>8, :stat=>25}, {:month=>9, :stat=>26}, {:month=>10, :stat=>30}, {:month=>11, :stat=>34}, {:month=>12, :stat=>39}]"
"true","Pavlo","Azov","Russia","47.0409","39.1048","During summer months the beach can become very crowded on weekends.","https://www.windfinder.com/wind-cgi/homepagestatistics.pl?STATIONSNR=ru10","[{:month=>1, :stat=>9}, {:month=>2, :stat=>10}, {:month=>3, :stat=>12}, {:month=>4, :stat=>13}, {:month=>5, :stat=>8}, {:month=>6, :stat=>7}, {:month=>7, :stat=>5}, {:month=>8, :stat=>2}, {:month=>9, :stat=>5}, {:month=>10, :stat=>6}, {:month=>11, :stat=>8}, {:month=>12, :stat=>10}]"
"true","Yasenka ","Yasenskaya Pereprava","Russia","46.2517","38.2967","Fine shell rock, beaches of the big extent, many convenient places for kiting and windsurfing, big deserted beaches. Opportunity to choose a convenient beach for different wind directions.","https://www.windfinder.com/wind-cgi/homepagestatistics.pl?STATIONSNR=ru3","[{:month=>1, :stat=>7}, {:month=>2, :stat=>10}, {:month=>3, :stat=>7}, {:month=>4, :stat=>6}, {:month=>5, :stat=>1}, {:month=>6, :stat=>2}, {:month=>7, :stat=>1}, {:month=>8, :stat=>1}, {:month=>9, :stat=>3}, {:month=>10, :stat=>4}, {:month=>11, :stat=>4}, {:month=>12, :stat=>5}]"
"true","St","Dundee, St. Andrews","Scotland (UK)","56.36420421329704","","Long sandy beach all the way along the St. Andrews golf course. Lots of space. Can be dangerously busy in high summer though, so please be careful launching and landing kites. Huge at low tide. Fine, hard packed sand. Few obstacles. Perfect.","https://www.windfinder.com/wind-cgi/homepagestatistics.pl?STATIONSNR=gb22","[{:month=>1, :stat=>45}, {:month=>2, :stat=>45}, {:month=>3, :stat=>53}, {:month=>4, :stat=>51}, {:month=>5, :stat=>53}, {:month=>6, :stat=>45}, {:month=>7, :stat=>43}, {:month=>8, :stat=>41}, {:month=>9, :stat=>43}, {:month=>10, :stat=>44}, {:month=>11, :stat=>39}, {:month=>12, :stat=>42}]"
"true","Pettycur Bay ","Kinghorn, Pettycur","Scotland (UK)","56.063","","4 miles of flat soft sand bar, no rocks, enough space to launch and land the kite. Watch out for the cliff and harbor that are downwind in a SW. Set up on the main (big) beach. There is a smaller beach near the harbor, separated by a rocky outcrop - this is your emergency landing if it all goes wrong.","https://www.windfinder.com/wind-cgi/homepagestatistics.pl?STATIONSNR=gb157","[{:month=>1, :stat=>14}, {:month=>2, :stat=>16}, {:month=>3, :stat=>22}, {:month=>4, :stat=>18}, {:month=>5, :stat=>13}, {:month=>6, :stat=>5}, {:month=>7, :stat=>3}, {:month=>8, :stat=>4}, {:month=>9, :stat=>7}, {:month=>10, :stat=>6}, {:month=>11, :stat=>11}, {:month=>12, :stat=>19}]"
"true","Balmedie Beach ","Balmedie","Scotland (UK)","57.2515","","The beach is 11 miles of golden sand backed by a massive dune system. When the tide goes out there is a large area of flat sand that dries out quickly. Sometimes large pools can be created depending on the sea conditions in the prevailing months which make it great for teaching. During most of the year there is normally a large area of soft sand between the high tide mark and the dunes. This sometimes disappears during high tide and winter storms. Hopefully the snow has fallen in the hills less than 80 miles away so we do a bit of snow kiting instead.","https://www.windfinder.com/wind-cgi/homepagestatistics.pl?STATIONSNR=gb1","[{:month=>1, :stat=>45}, {:month=>2, :stat=>43}, {:month=>3, :stat=>44}, {:month=>4, :stat=>44}, {:month=>5, :stat=>40}, {:month=>6, :stat=>35}, {:month=>7, :stat=>35}, {:month=>8, :stat=>36}, {:month=>9, :stat=>36}, {:month=>10, :stat=>39}, {:month=>11, :stat=>36}, {:month=>12, :stat=>38}]"
"true","Shell Bay ","Elie","Scotland (UK)","56.1975","","Sand for miles, a bit of shell on the high tide mark, hence the name. No real launch space at high tide.","https://www.windfinder.com/wind-cgi/homepagestatistics.pl?STATIONSNR=gb22","[{:month=>1, :stat=>45}, {:month=>2, :stat=>45}, {:month=>3, :stat=>53}, {:month=>4, :stat=>51}, {:month=>5, :stat=>53}, {:month=>6, :stat=>45}, {:month=>7, :stat=>43}, {:month=>8, :stat=>41}, {:month=>9, :stat=>43}, {:month=>10, :stat=>44}, {:month=>11, :stat=>39}, {:month=>12, :stat=>42}]"
"true","Barassie ","Troon","Scotland (UK)","55.5566","","Situated at the southern end of of 15km Irvine bay, has huge area of sand from mid to low tide with great shallow play areas behind the numerous sand banks. High tide is safe for launching as there is a large area of grass between the beach and main road. Park practically on the beach if you like but should be mind full to stay upwind of the kites. Generally this area is safe and hazard free for kitesurfing and never very crowded with other beach users even in the hight of summer.","https://www.windfinder.com/wind-cgi/homepagestatistics.pl?STATIONSNR=gb59","[{:month=>1, :stat=>44}, {:month=>2, :stat=>39}, {:month=>3, :stat=>45}, {:month=>4, :stat=>41}, {:month=>5, :stat=>43}, {:month=>6, :stat=>33}, {:month=>7, :stat=>40}, {:month=>8, :stat=>40}, {:month=>9, :stat=>43}, {:month=>10, :stat=>37}, {:month=>11, :stat=>41}, {:month=>12, :stat=>41}]"
"true","Fraserburgh ","St Combs","Scotland (UK)","57.6775","","Fantastic 3 miles golden horse shoe shaped, sandy beach.","https://www.windfinder.com/wind-cgi/homepagestatistics.pl?STATIONSNR=gb105","[{:month=>1, :stat=>74}, {:month=>2, :stat=>64}, {:month=>3, :stat=>68}, {:month=>4, :stat=>52}, {:month=>5, :stat=>50}, {:month=>6, :stat=>43}, {:month=>7, :stat=>52}, {:month=>8, :stat=>51}, {:month=>9, :stat=>57}, {:month=>10, :stat=>70}, {:month=>11, :stat=>70}, {:month=>12, :stat=>67}]"
"true","Troon South Beach ","Troon","Scotland (UK)","55.5378","","No obstacles, except in storms when the rivers tend to flush out tree stumps etc.","https://www.windfinder.com/wind-cgi/homepagestatistics.pl?STATIONSNR=gb59","[{:month=>1, :stat=>44}, {:month=>2, :stat=>39}, {:month=>3, :stat=>45}, {:month=>4, :stat=>41}, {:month=>5, :stat=>43}, {:month=>6, :stat=>33}, {:month=>7, :stat=>40}, {:month=>8, :stat=>40}, {:month=>9, :stat=>43}, {:month=>10, :stat=>37}, {:month=>11, :stat=>41}, {:month=>12, :stat=>41}]"
"true","Isle ","Eoligarry","Scotland (UK)","57.034","","Sandy beach with rocks at both ends.","https://www.windfinder.com/wind-cgi/homepagestatistics.pl?STATIONSNR=gb109","[{:month=>1, :stat=>82}, {:month=>2, :stat=>76}, {:month=>3, :stat=>78}, {:month=>4, :stat=>76}, {:month=>5, :stat=>68}, {:month=>6, :stat=>56}, {:month=>7, :stat=>99}, {:month=>8, :stat=>67}, {:month=>9, :stat=>85}, {:month=>10, :stat=>77}, {:month=>11, :stat=>88}, {:month=>12, :stat=>89}]"
"true","Monifieth ","Monifieth","Scotland (UK)","56.4792","","","https://www.windfinder.com/wind-cgi/homepagestatistics.pl?STATIONSNR=gb22","[{:month=>1, :stat=>45}, {:month=>2, :stat=>45}, {:month=>3, :stat=>53}, {:month=>4, :stat=>51}, {:month=>5, :stat=>53}, {:month=>6, :stat=>45}, {:month=>7, :stat=>43}, {:month=>8, :stat=>41}, {:month=>9, :stat=>43}, {:month=>10, :stat=>44}, {:month=>11, :stat=>39}, {:month=>12, :stat=>42}]"
"true","Ardrossan ","Ardrossan, Saltcoats","Scotland (UK)","55.6385","","About 1 km long beach, directly between Ardrossan and Saltcoats.","https://www.windfinder.com/wind-cgi/homepagestatistics.pl?STATIONSNR=gb59","[{:month=>1, :stat=>44}, {:month=>2, :stat=>39}, {:month=>3, :stat=>45}, {:month=>4, :stat=>41}, {:month=>5, :stat=>43}, {:month=>6, :stat=>33}, {:month=>7, :stat=>40}, {:month=>8, :stat=>40}, {:month=>9, :stat=>43}, {:month=>10, :stat=>37}, {:month=>11, :stat=>41}, {:month=>12, :stat=>41}]"
"true","Rusanda Lake ","Melenci","Serbia","45.5239","20.303","","https://www.windfinder.com/wind-cgi/homepagestatistics.pl?STATIONSNR=hu8","[{:month=>1, :stat=>17}, {:month=>2, :stat=>22}, {:month=>3, :stat=>31}, {:month=>4, :stat=>25}, {:month=>5, :stat=>20}, {:month=>6, :stat=>12}, {:month=>7, :stat=>15}, {:month=>8, :stat=>11}, {:month=>9, :stat=>15}, {:month=>10, :stat=>16}, {:month=>11, :stat=>21}, {:month=>12, :stat=>18}]"
"true","Donau ","Hamuliakovo, Kalinkovo","Slovakia","48.0443","17.2389","","https://www.windfinder.com/wind-cgi/homepagestatistics.pl?STATIONSNR=sk1","[{:month=>1, :stat=>23}, {:month=>2, :stat=>29}, {:month=>3, :stat=>37}, {:month=>4, :stat=>34}, {:month=>5, :stat=>30}, {:month=>6, :stat=>28}, {:month=>7, :stat=>27}, {:month=>8, :stat=>17}, {:month=>9, :stat=>24}, {:month=>10, :stat=>18}, {:month=>11, :stat=>22}, {:month=>12, :stat=>21}]"
"true","Kralova ","Galanta","Slovakia","48.2089","17.8004","The grassy beach is about 20 m wide, so you can start from the water. There are a lots of bushes on the beach. Starting and landing is uncomfortable.","https://www.windfinder.com/wind-cgi/homepagestatistics.pl?STATIONSNR=sk1","[{:month=>1, :stat=>23}, {:month=>2, :stat=>29}, {:month=>3, :stat=>37}, {:month=>4, :stat=>34}, {:month=>5, :stat=>30}, {:month=>6, :stat=>28}, {:month=>7, :stat=>27}, {:month=>8, :stat=>17}, {:month=>9, :stat=>24}, {:month=>10, :stat=>18}, {:month=>11, :stat=>22}, {:month=>12, :stat=>21}]"
"true","Kralova ","Strkovec","Slovakia","48.2035","17.8288","","https://www.windfinder.com/wind-cgi/homepagestatistics.pl?STATIONSNR=sk1","[{:month=>1, :stat=>23}, {:month=>2, :stat=>29}, {:month=>3, :stat=>37}, {:month=>4, :stat=>34}, {:month=>5, :stat=>30}, {:month=>6, :stat=>28}, {:month=>7, :stat=>27}, {:month=>8, :stat=>17}, {:month=>9, :stat=>24}, {:month=>10, :stat=>18}, {:month=>11, :stat=>22}, {:month=>12, :stat=>21}]"
"true","Kralova ","Soporna","Slovakia","48.2459","17.8109","Small beach with grass and little sand.","https://www.windfinder.com/wind-cgi/homepagestatistics.pl?STATIONSNR=sk1","[{:month=>1, :stat=>23}, {:month=>2, :stat=>29}, {:month=>3, :stat=>37}, {:month=>4, :stat=>34}, {:month=>5, :stat=>30}, {:month=>6, :stat=>28}, {:month=>7, :stat=>27}, {:month=>8, :stat=>17}, {:month=>9, :stat=>24}, {:month=>10, :stat=>18}, {:month=>11, :stat=>22}, {:month=>12, :stat=>21}]"
"true","Kralova ","Soporna","Slovakia","48.2203","17.826","Small sandy beach with grass behind it.","https://www.windfinder.com/wind-cgi/homepagestatistics.pl?STATIONSNR=sk1","[{:month=>1, :stat=>23}, {:month=>2, :stat=>29}, {:month=>3, :stat=>37}, {:month=>4, :stat=>34}, {:month=>5, :stat=>30}, {:month=>6, :stat=>28}, {:month=>7, :stat=>27}, {:month=>8, :stat=>17}, {:month=>9, :stat=>24}, {:month=>10, :stat=>18}, {:month=>11, :stat=>22}, {:month=>12, :stat=>21}]"
"true","Kralova ","Vahovce","Slovakia","48.2357","17.8004","The grassy beach is about 20 m wide, so you can start from the water.","https://www.windfinder.com/wind-cgi/homepagestatistics.pl?STATIONSNR=sk1","[{:month=>1, :stat=>23}, {:month=>2, :stat=>29}, {:month=>3, :stat=>37}, {:month=>4, :stat=>34}, {:month=>5, :stat=>30}, {:month=>6, :stat=>28}, {:month=>7, :stat=>27}, {:month=>8, :stat=>17}, {:month=>9, :stat=>24}, {:month=>10, :stat=>18}, {:month=>11, :stat=>22}, {:month=>12, :stat=>21}]"
"true","Izola ","Koper, Izola","Slovenia","45.5418","13.6577","Stony beach with some obstacles, but safe for kitersurfers if used on the most downwind place. Enough place to easy rig and launch a kite, some concrete and rock.","https://www.windfinder.com/wind-cgi/homepagestatistics.pl?STATIONSNR=sl1","[{:month=>1, :stat=>10}, {:month=>2, :stat=>11}, {:month=>3, :stat=>17}, {:month=>4, :stat=>12}, {:month=>5, :stat=>10}, {:month=>6, :stat=>9}, {:month=>7, :stat=>10}, {:month=>8, :stat=>8}, {:month=>9, :stat=>8}, {:month=>10, :stat=>9}, {:month=>11, :stat=>10}, {:month=>12, :stat=>11}]"
"true","Piran ","Koper","Slovenia","45.5277","13.5757","Rocks and stones. Very tiny beach.","https://www.windfinder.com/wind-cgi/homepagestatistics.pl?STATIONSNR=sl1","[{:month=>1, :stat=>10}, {:month=>2, :stat=>11}, {:month=>3, :stat=>17}, {:month=>4, :stat=>12}, {:month=>5, :stat=>10}, {:month=>6, :stat=>9}, {:month=>7, :stat=>10}, {:month=>8, :stat=>8}, {:month=>9, :stat=>8}, {:month=>10, :stat=>9}, {:month=>11, :stat=>10}, {:month=>12, :stat=>11}]"
"true","Bohinjsko Jezero ","Bohinj","Slovenia","46.2822","13.8805","Small grassy area. During summer lots of windsurf gear. The marked spot is mostly for windsurfers. If you continue up in the bay NE then you will find a small entrance in between the trees. The wind is completely onshore.","https://www.windfinder.com/wind-cgi/homepagestatistics.pl?STATIONSNR=it42","[{:month=>1, :stat=>8}, {:month=>2, :stat=>12}, {:month=>3, :stat=>14}, {:month=>4, :stat=>10}, {:month=>5, :stat=>6}, {:month=>6, :stat=>6}, {:month=>7, :stat=>9}, {:month=>8, :stat=>7}, {:month=>9, :stat=>9}, {:month=>10, :stat=>11}, {:month=>11, :stat=>7}, {:month=>12, :stat=>7}]"
"true","Seca ","Portoroz","Slovenia","45.5006","13.5871","","https://www.windfinder.com/wind-cgi/homepagestatistics.pl?STATIONSNR=sl1","[{:month=>1, :stat=>10}, {:month=>2, :stat=>11}, {:month=>3, :stat=>17}, {:month=>4, :stat=>12}, {:month=>5, :stat=>10}, {:month=>6, :stat=>9}, {:month=>7, :stat=>10}, {:month=>8, :stat=>8}, {:month=>9, :stat=>8}, {:month=>10, :stat=>9}, {:month=>11, :stat=>10}, {:month=>12, :stat=>11}]"
"true","Kamesnica ","Murska Sobota","Slovenia","46.6399","16.181","Very small place for launching the kite. Tricky.","https://www.windfinder.com/wind-cgi/homepagestatistics.pl?STATIONSNR=hr25","[{:month=>1, :stat=>6}, {:month=>2, :stat=>8}, {:month=>3, :stat=>16}, {:month=>4, :stat=>12}, {:month=>5, :stat=>10}, {:month=>6, :stat=>6}, {:month=>7, :stat=>2}, {:month=>8, :stat=>3}, {:month=>9, :stat=>5}, {:month=>10, :stat=>9}, {:month=>11, :stat=>8}, {:month=>12, :stat=>6}]"
"true","Tarifa ","Tarifa","Spain","36.0135","","Very long big beach which in summer gets extremely overcrowded. No shells just fine sand.","https://www.windfinder.com/wind-cgi/homepagestatistics.pl?STATIONSNR=es40","[{:month=>1, :stat=>49}, {:month=>2, :stat=>61}, {:month=>3, :stat=>60}, {:month=>4, :stat=>61}, {:month=>5, :stat=>54}, {:month=>6, :stat=>53}, {:month=>7, :stat=>56}, {:month=>8, :stat=>49}, {:month=>9, :stat=>51}, {:month=>10, :stat=>56}, {:month=>11, :stat=>43}, {:month=>12, :stat=>46}]"
"true","Los Canos ","Barbede, Tarifa","Spain","36.1868","","Sand with rocks. No problem for windsurfers. Kitesurfers should enter the water near the lighthouse: more space, sand and less rocks.","https://www.windfinder.com/wind-cgi/homepagestatistics.pl?STATIONSNR=es115","[{:month=>1, :stat=>10}, {:month=>2, :stat=>15}, {:month=>3, :stat=>27}, {:month=>4, :stat=>25}, {:month=>5, :stat=>27}, {:month=>6, :stat=>21}, {:month=>7, :stat=>18}, {:month=>8, :stat=>19}, {:month=>9, :stat=>19}, {:month=>10, :stat=>11}, {:month=>11, :stat=>9}, {:month=>12, :stat=>13}]"
"true","St","Figueres","Spain","42.1751","3.1115","Very long, sandy beach. Lots of access to the beach, but not all for free. Via the camping grounds a fee will be charged.","https://www.windfinder.com/wind-cgi/homepagestatistics.pl?STATIONSNR=es82","[{:month=>1, :stat=>8}, {:month=>2, :stat=>11}, {:month=>3, :stat=>6}, {:month=>4, :stat=>9}, {:month=>5, :stat=>7}, {:month=>6, :stat=>8}, {:month=>7, :stat=>8}, {:month=>8, :stat=>9}, {:month=>9, :stat=>7}, {:month=>10, :stat=>8}, {:month=>11, :stat=>12}, {:month=>12, :stat=>11}]"
"true","Mallorca ","Palma de Mallorca","Spain","39.534","2.7171","Sandy beach 6km long. Enough space to launch and land in Can Pastilla. Right next to the harbour is a huge field of hard sand with soft sand closer to the waterline. Here is the kite launch zone. The rest of the beach is very packed in summer and should be avoided. Too many people and the risk of hurting someone is very high!","https://www.windfinder.com/wind-cgi/homepagestatistics.pl?STATIONSNR=es14","[{:month=>1, :stat=>26}, {:month=>2, :stat=>30}, {:month=>3, :stat=>36}, {:month=>4, :stat=>36}, {:month=>5, :stat=>38}, {:month=>6, :stat=>38}, {:month=>7, :stat=>42}, {:month=>8, :stat=>35}, {:month=>9, :stat=>25}, {:month=>10, :stat=>24}, {:month=>11, :stat=>28}, {:month=>12, :stat=>23}]"
"true","Castelldefels ","Castelldefels","Spain","41.2644","1.9791","Soft sand, no rocks, 50-100 m wide beach. Very long beach.","https://www.windfinder.com/wind-cgi/homepagestatistics.pl?STATIONSNR=es3","[{:month=>1, :stat=>29}, {:month=>2, :stat=>32}, {:month=>3, :stat=>37}, {:month=>4, :stat=>34}, {:month=>5, :stat=>31}, {:month=>6, :stat=>29}, {:month=>7, :stat=>30}, {:month=>8, :stat=>26}, {:month=>9, :stat=>23}, {:month=>10, :stat=>22}, {:month=>11, :stat=>26}, {:month=>12, :stat=>30}]"
"true","Valdevaqueros ","Tarifa, Bolonia","Spain","36.0651","","Large area with sand about 50m wide. Many kitesurfers during summer. Large area with sand about 50m wide.","https://www.windfinder.com/wind-cgi/homepagestatistics.pl?STATIONSNR=es40","[{:month=>1, :stat=>49}, {:month=>2, :stat=>61}, {:month=>3, :stat=>60}, {:month=>4, :stat=>61}, {:month=>5, :stat=>54}, {:month=>6, :stat=>53}, {:month=>7, :stat=>56}, {:month=>8, :stat=>49}, {:month=>9, :stat=>51}, {:month=>10, :stat=>56}, {:month=>11, :stat=>43}, {:month=>12, :stat=>46}]"
"true","Los Lances ","Tarifa, Algeciras","Spain","36.0441","","Big, sandy beach. Lots of space, but during summer many kite instructions on the beach.","https://www.windfinder.com/wind-cgi/homepagestatistics.pl?STATIONSNR=es40","[{:month=>1, :stat=>49}, {:month=>2, :stat=>61}, {:month=>3, :stat=>60}, {:month=>4, :stat=>61}, {:month=>5, :stat=>54}, {:month=>6, :stat=>53}, {:month=>7, :stat=>56}, {:month=>8, :stat=>49}, {:month=>9, :stat=>51}, {:month=>10, :stat=>56}, {:month=>11, :stat=>43}, {:month=>12, :stat=>46}]"
"true","Santa Pola ","Santa Pola","Spain","38.1911","","Wide and long sandy beach. Lots of place for rigging and launching. Houses along the beach.","https://www.windfinder.com/wind-cgi/homepagestatistics.pl?STATIONSNR=es1","[{:month=>1, :stat=>28}, {:month=>2, :stat=>30}, {:month=>3, :stat=>31}, {:month=>4, :stat=>28}, {:month=>5, :stat=>24}, {:month=>6, :stat=>21}, {:month=>7, :stat=>19}, {:month=>8, :stat=>20}, {:month=>9, :stat=>20}, {:month=>10, :stat=>16}, {:month=>11, :stat=>24}, {:month=>12, :stat=>20}]"
"true","Getares ","Algeciras","Spain","36.0954","","Big, sandy beach, lots of space. A grassy area just behind the beach.","https://www.windfinder.com/wind-cgi/homepagestatistics.pl?STATIONSNR=es22","[{:month=>1, :stat=>53}, {:month=>2, :stat=>60}, {:month=>3, :stat=>55}, {:month=>4, :stat=>53}, {:month=>5, :stat=>49}, {:month=>6, :stat=>45}, {:month=>7, :stat=>42}, {:month=>8, :stat=>42}, {:month=>9, :stat=>39}, {:month=>10, :stat=>37}, {:month=>11, :stat=>49}, {:month=>12, :stat=>54}]"
"true","Mallorca ","Arta, Son Serra de Marina","Spain","39.7315","3.2379","Sandy beach, about 2 km long and at the beginning about 150m deep. Enough space for launching and landing. Can be crowded in summer and empty in the other seasons. The beach has a lot of seaweed between beach and water.","https://www.windfinder.com/wind-cgi/homepagestatistics.pl?STATIONSNR=es114","[{:month=>1, :stat=>0}, {:month=>2, :stat=>0}, {:month=>3, :stat=>1}, {:month=>4, :stat=>0}, {:month=>5, :stat=>0}, {:month=>6, :stat=>0}, {:month=>7, :stat=>0}, {:month=>8, :stat=>0}, {:month=>9, :stat=>0}, {:month=>10, :stat=>0}, {:month=>11, :stat=>0}, {:month=>12, :stat=>1}]"
"true","Habo Ljung ","Sturup, Lomma","Sweden","55.6892","13.0555","Narrow sand beach. Nice grass area for launch and landing.","https://www.windfinder.com/wind-cgi/homepagestatistics.pl?STATIONSNR=se56","[{:month=>1, :stat=>24}, {:month=>2, :stat=>23}, {:month=>3, :stat=>23}, {:month=>4, :stat=>23}, {:month=>5, :stat=>16}, {:month=>6, :stat=>16}, {:month=>7, :stat=>11}, {:month=>8, :stat=>13}, {:month=>9, :stat=>14}, {:month=>10, :stat=>13}, {:month=>11, :stat=>17}, {:month=>12, :stat=>17}]"
"true","Oeland ","Faerjestaden","Sweden","56.5753","16.4041","Mostly grass, sand or small pebbles close to the water. Some pine trees close to the beach, not suitable for self start/landing.","https://www.windfinder.com/wind-cgi/homepagestatistics.pl?STATIONSNR=se81","[{:month=>1, :stat=>4}, {:month=>2, :stat=>3}, {:month=>3, :stat=>5}, {:month=>4, :stat=>5}, {:month=>5, :stat=>2}, {:month=>6, :stat=>1}, {:month=>7, :stat=>1}, {:month=>8, :stat=>1}, {:month=>9, :stat=>1}, {:month=>10, :stat=>3}, {:month=>11, :stat=>4}, {:month=>12, :stat=>6}]"
"true","Lagans Mynningen ","Bastad, Mellbystrand, Snapparp","Sweden","56.5513","12.9463","The beach is clean and just in front of a `national park`. The space to launch is huge. Because the popular beach is three miles away no problems with crowds.","https://www.windfinder.com/wind-cgi/homepagestatistics.pl?STATIONSNR=se82","[{:month=>1, :stat=>6}, {:month=>2, :stat=>5}, {:month=>3, :stat=>4}, {:month=>4, :stat=>5}, {:month=>5, :stat=>2}, {:month=>6, :stat=>1}, {:month=>7, :stat=>1}, {:month=>8, :stat=>1}, {:month=>9, :stat=>1}, {:month=>10, :stat=>2}, {:month=>11, :stat=>3}, {:month=>12, :stat=>8}]"
"true","Are Sjoen ","Ostersund, Are","Sweden","63.3965","13.0758","Small, sandy beach. beach goers during summer.","https://www.windfinder.com/wind-cgi/homepagestatistics.pl?STATIONSNR=se29","[{:month=>1, :stat=>28}, {:month=>2, :stat=>33}, {:month=>3, :stat=>34}, {:month=>4, :stat=>30}, {:month=>5, :stat=>29}, {:month=>6, :stat=>32}, {:month=>7, :stat=>24}, {:month=>8, :stat=>17}, {:month=>9, :stat=>28}, {:month=>10, :stat=>32}, {:month=>11, :stat=>32}, {:month=>12, :stat=>29}]"
"true","Askims Badet ","Vaestra Froelunda","Sweden","57.6251","11.9268","Launch from the main beach or from a very small area on a little island on the other side of the camping area called Marholmen (not in summer).","https://www.windfinder.com/wind-cgi/homepagestatistics.pl?STATIONSNR=se10","[{:month=>1, :stat=>33}, {:month=>2, :stat=>34}, {:month=>3, :stat=>34}, {:month=>4, :stat=>37}, {:month=>5, :stat=>38}, {:month=>6, :stat=>37}, {:month=>7, :stat=>33}, {:month=>8, :stat=>32}, {:month=>9, :stat=>36}, {:month=>10, :stat=>36}, {:month=>11, :stat=>37}, {:month=>12, :stat=>33}]"
"true","Rullsand ","Gaevle","Sweden","60.6405","17.4615","The sandy beach is 600m long and up to 30m wide. Good space for kite launching and landing. Hard to use during summer bathing season (July). Two areas are available: Rullsand close to the mouth of Dalaevlen and the more lagoon like Braemsand directly to the east. Both areas, especially Braemsand can be crowded with bathers during nice warm day from end of June to beginning of August.","https://www.windfinder.com/wind-cgi/homepagestatistics.pl?STATIONSNR=se24","[{:month=>1, :stat=>3}, {:month=>2, :stat=>2}, {:month=>3, :stat=>4}, {:month=>4, :stat=>6}, {:month=>5, :stat=>5}, {:month=>6, :stat=>2}, {:month=>7, :stat=>2}, {:month=>8, :stat=>1}, {:month=>9, :stat=>2}, {:month=>10, :stat=>7}, {:month=>11, :stat=>3}, {:month=>12, :stat=>3}]"
"true","Klagshamn North Shore ","Malmo","Sweden","55.5253","12.9002","Fairly narrow sand beach which is crowded during summer months. In summer launch on sandbar 100m east of beach.","https://www.windfinder.com/wind-cgi/homepagestatistics.pl?STATIONSNR=06183","[{:month=>1, :stat=>80}, {:month=>2, :stat=>82}, {:month=>3, :stat=>73}, {:month=>4, :stat=>66}, {:month=>5, :stat=>66}, {:month=>6, :stat=>66}, {:month=>7, :stat=>62}, {:month=>8, :stat=>66}, {:month=>9, :stat=>74}, {:month=>10, :stat=>81}, {:month=>11, :stat=>79}, {:month=>12, :stat=>85}]"
"true","Lomma ","Lomma","Sweden","55.6723","13.0608","Big meadow. Stony beach. Big sandbar in front of the beach with lots of space to launch from.","https://www.windfinder.com/wind-cgi/homepagestatistics.pl?STATIONSNR=se56","[{:month=>1, :stat=>24}, {:month=>2, :stat=>23}, {:month=>3, :stat=>23}, {:month=>4, :stat=>23}, {:month=>5, :stat=>16}, {:month=>6, :stat=>16}, {:month=>7, :stat=>11}, {:month=>8, :stat=>13}, {:month=>9, :stat=>14}, {:month=>10, :stat=>13}, {:month=>11, :stat=>17}, {:month=>12, :stat=>17}]"
"true","Schweitzerbadet ","Stockholm","Sweden","59.1395","18.3942","Small sandy beach, but OK to launch and land for experienced riders. Restrictions during June to August due to lots of people at the beach. Fairly narrow comparing to international beaches.","https://www.windfinder.com/wind-cgi/homepagestatistics.pl?STATIONSNR=se51","[{:month=>1, :stat=>20}, {:month=>2, :stat=>10}, {:month=>3, :stat=>12}, {:month=>4, :stat=>17}, {:month=>5, :stat=>12}, {:month=>6, :stat=>18}, {:month=>7, :stat=>9}, {:month=>8, :stat=>14}, {:month=>9, :stat=>11}, {:month=>10, :stat=>14}, {:month=>11, :stat=>17}, {:month=>12, :stat=>17}]"
"true","Oeland ","Lottorp, Boeda","Sweden","57.2599","17.0543","Sandy, very wide at some places, really nice, lots of space during the off season, but during the summer it will get very crowded if the weather is nice.","https://www.windfinder.com/wind-cgi/homepagestatistics.pl?STATIONSNR=se40","[{:month=>1, :stat=>18}, {:month=>2, :stat=>7}, {:month=>3, :stat=>15}, {:month=>4, :stat=>12}, {:month=>5, :stat=>7}, {:month=>6, :stat=>5}, {:month=>7, :stat=>5}, {:month=>8, :stat=>4}, {:month=>9, :stat=>5}, {:month=>10, :stat=>6}, {:month=>11, :stat=>6}, {:month=>12, :stat=>9}]"
"true","Silvaplana See ","St. Moritz","Switzerland","46.456","9.7976","There is no sandy beach, but from the launch/land side there is a big area of grass the whole way down the lake (600m) and again 500m up on the other side where you normally arrive, if your kite drops and you are not able to relaunch again. So it's safe. There is one official entry but you can get out (back on shore) everywhere if you manage 30 cm of stones which are around at waterside. On the weekends it's normally a little bit crowded to get in. Sometimes you have to wait one minute before launching you kite. Upward from the official kite launching zone there is no way to start your kite. There are also a lot of windsurfers, so respect the zones in the water.","https://www.windfinder.com/wind-cgi/homepagestatistics.pl?STATIONSNR=ch17","[{:month=>1, :stat=>9}, {:month=>2, :stat=>13}, {:month=>3, :stat=>17}, {:month=>4, :stat=>24}, {:month=>5, :stat=>27}, {:month=>6, :stat=>27}, {:month=>7, :stat=>31}, {:month=>8, :stat=>33}, {:month=>9, :stat=>24}, {:month=>10, :stat=>18}, {:month=>11, :stat=>10}, {:month=>12, :stat=>8}]"
"true","Bielersee ","Ipsach","Switzerland","47.1184","7.2227","There is no sandy beach. There are kind of lagoons of gravel. The space to launch the kite is limited due to trees and has hazardous obstacles. Normally this beach is only used by kiteboarders. Windsurfers are starting some 200m away.","https://www.windfinder.com/wind-cgi/homepagestatistics.pl?STATIONSNR=ch34","[{:month=>1, :stat=>0}, {:month=>2, :stat=>0}, {:month=>3, :stat=>0}, {:month=>4, :stat=>0}, {:month=>5, :stat=>0}, {:month=>6, :stat=>0}, {:month=>7, :stat=>1}, {:month=>8, :stat=>1}, {:month=>9, :stat=>0}, {:month=>10, :stat=>1}, {:month=>11, :stat=>1}, {:month=>12, :stat=>1}]"
"true","Lac De Neuchatel ","Yverdon, Yvonand, La Plage","Switzerland","46.8054","6.7362","Small sandy beach. In summer watch the people. Not much space, be careful.","https://www.windfinder.com/wind-cgi/homepagestatistics.pl?STATIONSNR=ch11","[{:month=>1, :stat=>13}, {:month=>2, :stat=>17}, {:month=>3, :stat=>21}, {:month=>4, :stat=>14}, {:month=>5, :stat=>11}, {:month=>6, :stat=>8}, {:month=>7, :stat=>8}, {:month=>8, :stat=>5}, {:month=>9, :stat=>8}, {:month=>10, :stat=>8}, {:month=>11, :stat=>10}, {:month=>12, :stat=>11}]"
"true","Lake Geneva ","Versoix","Switzerland","46.2731","6.1712","Small beach of stones with onshore wind (30 meters long). You have to take off your kite and jump into water at the end of the beach. To come back on shore just go upwind of the beach and land your kite. Do not be alone on this spot! But do not be more than three riders as well.","https://www.windfinder.com/wind-cgi/homepagestatistics.pl?STATIONSNR=ch1","[{:month=>1, :stat=>16}, {:month=>2, :stat=>17}, {:month=>3, :stat=>22}, {:month=>4, :stat=>18}, {:month=>5, :stat=>14}, {:month=>6, :stat=>14}, {:month=>7, :stat=>12}, {:month=>8, :stat=>8}, {:month=>9, :stat=>13}, {:month=>10, :stat=>11}, {:month=>11, :stat=>12}, {:month=>12, :stat=>13}]"
"true","Lake Geneva ","St Sulpice","Switzerland","46.508","6.5447","Sandy beach. Packed in summer.","https://www.windfinder.com/wind-cgi/homepagestatistics.pl?STATIONSNR=ch36","[{:month=>1, :stat=>12}, {:month=>2, :stat=>9}, {:month=>3, :stat=>6}, {:month=>4, :stat=>4}, {:month=>5, :stat=>7}, {:month=>6, :stat=>5}, {:month=>7, :stat=>7}, {:month=>8, :stat=>3}, {:month=>9, :stat=>5}, {:month=>10, :stat=>3}, {:month=>11, :stat=>9}, {:month=>12, :stat=>13}]"
"true","Bodensee ","Konstanz, Kreuzlingen","Switzerland","47.6369","9.2228","Pebble beach. Big meadow next to it. Trees along the shore.","https://www.windfinder.com/wind-cgi/homepagestatistics.pl?STATIONSNR=10929","[{:month=>1, :stat=>8}, {:month=>2, :stat=>9}, {:month=>3, :stat=>10}, {:month=>4, :stat=>5}, {:month=>5, :stat=>5}, {:month=>6, :stat=>3}, {:month=>7, :stat=>4}, {:month=>8, :stat=>2}, {:month=>9, :stat=>2}, {:month=>10, :stat=>3}, {:month=>11, :stat=>5}, {:month=>12, :stat=>6}]"
"true","Bodensee ","Konstanz (Germay), Kreuzlingen","Switzerland","47.675","9.0369","No real beach, just a small area with a small creek (Eschlibach). Trees close by.","https://www.windfinder.com/wind-cgi/homepagestatistics.pl?STATIONSNR=10929","[{:month=>1, :stat=>8}, {:month=>2, :stat=>9}, {:month=>3, :stat=>10}, {:month=>4, :stat=>5}, {:month=>5, :stat=>5}, {:month=>6, :stat=>3}, {:month=>7, :stat=>4}, {:month=>8, :stat=>2}, {:month=>9, :stat=>2}, {:month=>10, :stat=>3}, {:month=>11, :stat=>5}, {:month=>12, :stat=>6}]"
"true","Lac ","Neuchatel","Switzerland","47.0106","6.9883","","https://www.windfinder.com/wind-cgi/homepagestatistics.pl?STATIONSNR=ch34","[{:month=>1, :stat=>0}, {:month=>2, :stat=>0}, {:month=>3, :stat=>0}, {:month=>4, :stat=>0}, {:month=>5, :stat=>0}, {:month=>6, :stat=>0}, {:month=>7, :stat=>1}, {:month=>8, :stat=>1}, {:month=>9, :stat=>0}, {:month=>10, :stat=>1}, {:month=>11, :stat=>1}, {:month=>12, :stat=>1}]"
"true","Lake Geneva ","Gland","Switzerland","46.425","6.2969","There is a grass area for rigging. The shore itself is made out of rocks which are roughly 1m high. Caution: It is not easy and safe to get in and out with a kite in the air.","https://www.windfinder.com/wind-cgi/homepagestatistics.pl?STATIONSNR=ch22","[{:month=>1, :stat=>11}, {:month=>2, :stat=>17}, {:month=>3, :stat=>22}, {:month=>4, :stat=>17}, {:month=>5, :stat=>14}, {:month=>6, :stat=>12}, {:month=>7, :stat=>9}, {:month=>8, :stat=>6}, {:month=>9, :stat=>13}, {:month=>10, :stat=>9}, {:month=>11, :stat=>12}, {:month=>12, :stat=>11}]"
"true","Lac ","Delley Portalban","Switzerland","46.923","6.9537","","https://www.windfinder.com/wind-cgi/homepagestatistics.pl?STATIONSNR=ch14","[{:month=>1, :stat=>11}, {:month=>2, :stat=>16}, {:month=>3, :stat=>18}, {:month=>4, :stat=>11}, {:month=>5, :stat=>10}, {:month=>6, :stat=>9}, {:month=>7, :stat=>9}, {:month=>8, :stat=>6}, {:month=>9, :stat=>9}, {:month=>10, :stat=>6}, {:month=>11, :stat=>11}, {:month=>12, :stat=>12}]"
"true","Pirlanta Beach ","Cesme","Turkey","38.2849","26.2501","Sandy beach, nice and soft, no shells, no rocks, no concrete. There is enough space to launch and land kites safely. The beach is about 200m wide and 500m long. Blue flagged, no other sports activities (forbidden from the government) just kitesurfing is allowed.","https://www.windfinder.com/wind-cgi/homepagestatistics.pl?STATIONSNR=gr11","[{:month=>1, :stat=>35}, {:month=>2, :stat=>38}, {:month=>3, :stat=>33}, {:month=>4, :stat=>27}, {:month=>5, :stat=>20}, {:month=>6, :stat=>24}, {:month=>7, :stat=>35}, {:month=>8, :stat=>36}, {:month=>9, :stat=>28}, {:month=>10, :stat=>32}, {:month=>11, :stat=>29}, {:month=>12, :stat=>36}]"
"true","Gokova ","Akyaka","Turkey","37.041","28.329","The beach is 3 km long and doesn't have any rocks, buildings, power lines or any other obstacles which might be dangerous for kiteboarding. There is a very large area to raise and land your kite on the beach. Even though there are some swimmers and beach users on some parts of the beach, our training location is far from all of these in a very convenient area.","https://www.windfinder.com/wind-cgi/homepagestatistics.pl?STATIONSNR=tr12","[{:month=>1, :stat=>1}, {:month=>2, :stat=>1}, {:month=>3, :stat=>1}, {:month=>4, :stat=>1}, {:month=>5, :stat=>1}, {:month=>6, :stat=>1}, {:month=>7, :stat=>1}, {:month=>8, :stat=>0}, {:month=>9, :stat=>0}, {:month=>10, :stat=>0}, {:month=>11, :stat=>1}, {:month=>12, :stat=>1}]"
"true","Fener ","Bodrum, Turgutreis","Turkey","36.9643","27.2666","The main beach indicated is reserved for windsurfers (and sunbathers). There is a small, narrow, sandy beach just round the headland which lies West of the main beach. Not many sunbathers or swimmers, even in August, though some so you need to take care. Though beach is small, launch and landing are straightforward. Local school even teaches from this beach, but it isn't ideal for beginners.","https://www.windfinder.com/wind-cgi/homepagestatistics.pl?STATIONSNR=tr10","[{:month=>1, :stat=>13}, {:month=>2, :stat=>13}, {:month=>3, :stat=>10}, {:month=>4, :stat=>7}, {:month=>5, :stat=>4}, {:month=>6, :stat=>6}, {:month=>7, :stat=>7}, {:month=>8, :stat=>5}, {:month=>9, :stat=>6}, {:month=>10, :stat=>5}, {:month=>11, :stat=>7}, {:month=>12, :stat=>10}]"
"true","Alacati ","Cesme","Turkey","38.2483","26.3861","It is around 1 km wide. There is very little sand. Lots of little shells. There is great space of launching in the shallow water. Actually it is a huge bay.","https://www.windfinder.com/wind-cgi/homepagestatistics.pl?STATIONSNR=gr11","[{:month=>1, :stat=>35}, {:month=>2, :stat=>38}, {:month=>3, :stat=>33}, {:month=>4, :stat=>27}, {:month=>5, :stat=>20}, {:month=>6, :stat=>24}, {:month=>7, :stat=>35}, {:month=>8, :stat=>36}, {:month=>9, :stat=>28}, {:month=>10, :stat=>32}, {:month=>11, :stat=>29}, {:month=>12, :stat=>36}]"
"true","Gokceada ","Canakkale, Echelek","Turkey","40.1442","25.9768","The beach is nice and there is soft sand. There is a dune where you can put gear not in use. The shelf is good and there is no rocks or threes. There is enough space for landing or safety launch.","https://www.windfinder.com/wind-cgi/homepagestatistics.pl?STATIONSNR=tr20","[{:month=>1, :stat=>42}, {:month=>2, :stat=>51}, {:month=>3, :stat=>47}, {:month=>4, :stat=>30}, {:month=>5, :stat=>28}, {:month=>6, :stat=>23}, {:month=>7, :stat=>40}, {:month=>8, :stat=>36}, {:month=>9, :stat=>32}, {:month=>10, :stat=>44}, {:month=>11, :stat=>29}, {:month=>12, :stat=>30}]"
"true","Calis Beach ","Fethiye","Turkey","36.6704","29.1031","Long and sandy bay. Sand and pebbles, plenty of space to launch by the surf center.","https://www.windfinder.com/wind-cgi/homepagestatistics.pl?STATIONSNR=tr2","[{:month=>1, :stat=>26}, {:month=>2, :stat=>26}, {:month=>3, :stat=>28}, {:month=>4, :stat=>30}, {:month=>5, :stat=>32}, {:month=>6, :stat=>43}, {:month=>7, :stat=>47}, {:month=>8, :stat=>40}, {:month=>9, :stat=>35}, {:month=>10, :stat=>19}, {:month=>11, :stat=>15}, {:month=>12, :stat=>19}]"
"true","Akyarlar ","Bodrum, Ortakent","Turkey","36.9662","27.2784","Small sandy beach, not much space. Too packed during summer.","https://www.windfinder.com/wind-cgi/homepagestatistics.pl?STATIONSNR=tr10","[{:month=>1, :stat=>13}, {:month=>2, :stat=>13}, {:month=>3, :stat=>10}, {:month=>4, :stat=>7}, {:month=>5, :stat=>4}, {:month=>6, :stat=>6}, {:month=>7, :stat=>7}, {:month=>8, :stat=>5}, {:month=>9, :stat=>6}, {:month=>10, :stat=>5}, {:month=>11, :stat=>7}, {:month=>12, :stat=>10}]"
"true","Bitez ","Bodrum, Bitez","Turkey","37.0303","27.4067","Sandy bay. Lots of beach goers.","https://www.windfinder.com/wind-cgi/homepagestatistics.pl?STATIONSNR=tr10","[{:month=>1, :stat=>13}, {:month=>2, :stat=>13}, {:month=>3, :stat=>10}, {:month=>4, :stat=>7}, {:month=>5, :stat=>4}, {:month=>6, :stat=>6}, {:month=>7, :stat=>7}, {:month=>8, :stat=>5}, {:month=>9, :stat=>6}, {:month=>10, :stat=>5}, {:month=>11, :stat=>7}, {:month=>12, :stat=>10}]"
"true","Ozlen Beach ","Fethiye, Kumluova","Turkey","36.294","29.2607","18 km of soft sandy beach with sand dunes and forest behind the beach. Plenty of space. Most of the time empty beach, because of the protected status. No tourism. 2 entries.","https://www.windfinder.com/wind-cgi/homepagestatistics.pl?STATIONSNR=tr2","[{:month=>1, :stat=>26}, {:month=>2, :stat=>26}, {:month=>3, :stat=>28}, {:month=>4, :stat=>30}, {:month=>5, :stat=>32}, {:month=>6, :stat=>43}, {:month=>7, :stat=>47}, {:month=>8, :stat=>40}, {:month=>9, :stat=>35}, {:month=>10, :stat=>19}, {:month=>11, :stat=>15}, {:month=>12, :stat=>19}]"
"true","Iztuzu ","Bogazagzi","Turkey","36.7852","28.6271","Very long and big sandy beach. Lots of space.","https://www.windfinder.com/wind-cgi/homepagestatistics.pl?STATIONSNR=tr11","[{:month=>1, :stat=>2}, {:month=>2, :stat=>2}, {:month=>3, :stat=>2}, {:month=>4, :stat=>1}, {:month=>5, :stat=>0}, {:month=>6, :stat=>1}, {:month=>7, :stat=>1}, {:month=>8, :stat=>1}, {:month=>9, :stat=>1}, {:month=>10, :stat=>1}, {:month=>11, :stat=>1}, {:month=>12, :stat=>2}]"
"true","Kiev Sea ","Lutezh","Ukraine","50.7102","30.3965","","https://www.windfinder.com/wind-cgi/homepagestatistics.pl?STATIONSNR=ua4","[{:month=>1, :stat=>21}, {:month=>2, :stat=>18}, {:month=>3, :stat=>30}, {:month=>4, :stat=>27}, {:month=>5, :stat=>19}, {:month=>6, :stat=>23}, {:month=>7, :stat=>17}, {:month=>8, :stat=>14}, {:month=>9, :stat=>15}, {:month=>10, :stat=>17}, {:month=>11, :stat=>18}, {:month=>12, :stat=>21}]"
"true","Skadovsk ","Skadovsk","Ukraine","46.1153","32.8528","Grassy rigging area. Very safe location.","https://www.windfinder.com/wind-cgi/homepagestatistics.pl?STATIONSNR=ua3","[{:month=>1, :stat=>38}, {:month=>2, :stat=>47}, {:month=>3, :stat=>41}, {:month=>4, :stat=>40}, {:month=>5, :stat=>22}, {:month=>6, :stat=>24}, {:month=>7, :stat=>21}, {:month=>8, :stat=>27}, {:month=>9, :stat=>33}, {:month=>10, :stat=>36}, {:month=>11, :stat=>36}, {:month=>12, :stat=>41}]"
"true","Kazantip Bay West ","Scolkine, Mysove","Ukraine","45.4377","35.8255","Long, sandy beach, about 10-15m wide.","https://www.windfinder.com/wind-cgi/homepagestatistics.pl?STATIONSNR=ru2","[{:month=>1, :stat=>46}, {:month=>2, :stat=>58}, {:month=>3, :stat=>52}, {:month=>4, :stat=>49}, {:month=>5, :stat=>37}, {:month=>6, :stat=>34}, {:month=>7, :stat=>31}, {:month=>8, :stat=>36}, {:month=>9, :stat=>41}, {:month=>10, :stat=>42}, {:month=>11, :stat=>43}, {:month=>12, :stat=>41}]"
"true","Dnepr ","Kiev","Ukraine","49.9854","31.5618","Beach is a big spot with grass, huge space for launching and landing. Good place for beginners also.","https://www.windfinder.com/wind-cgi/homepagestatistics.pl?STATIONSNR=ua4","[{:month=>1, :stat=>21}, {:month=>2, :stat=>18}, {:month=>3, :stat=>30}, {:month=>4, :stat=>27}, {:month=>5, :stat=>19}, {:month=>6, :stat=>23}, {:month=>7, :stat=>17}, {:month=>8, :stat=>14}, {:month=>9, :stat=>15}, {:month=>10, :stat=>17}, {:month=>11, :stat=>18}, {:month=>12, :stat=>21}]"
"true","Kazantip Bay East ","Scolkine, Mysove","Ukraine","45.4095","35.8813","Very long, sandy beach with pebbles. Some flat concrete obstacles at the waterline.","https://www.windfinder.com/wind-cgi/homepagestatistics.pl?STATIONSNR=ru2","[{:month=>1, :stat=>46}, {:month=>2, :stat=>58}, {:month=>3, :stat=>52}, {:month=>4, :stat=>49}, {:month=>5, :stat=>37}, {:month=>6, :stat=>34}, {:month=>7, :stat=>31}, {:month=>8, :stat=>36}, {:month=>9, :stat=>41}, {:month=>10, :stat=>42}, {:month=>11, :stat=>43}, {:month=>12, :stat=>41}]"
"false","Krym ","Gengorka","Ukraine","46.0832","34.8355","Very long beach, about 40m wide. Many beachgoers during summer.","",""
"true","Djnepr ","Kherson","Ukraine","46.8086","33.4576","Medium sized sandy beach. Look out for broken glass.","https://www.windfinder.com/wind-cgi/homepagestatistics.pl?STATIONSNR=ua3","[{:month=>1, :stat=>38}, {:month=>2, :stat=>47}, {:month=>3, :stat=>41}, {:month=>4, :stat=>40}, {:month=>5, :stat=>22}, {:month=>6, :stat=>24}, {:month=>7, :stat=>21}, {:month=>8, :stat=>27}, {:month=>9, :stat=>33}, {:month=>10, :stat=>36}, {:month=>11, :stat=>36}, {:month=>12, :stat=>41}]"
"false","Shatskyi ","Shatsk","Ukraine","51.4781","23.8421","","",""
"true","Kirillovka ","Melitopol, Novogrigoryevka","Ukraine","46.2851","35.2934","Nice sandy beach. Long beach with lots of space.","https://www.windfinder.com/wind-cgi/homepagestatistics.pl?STATIONSNR=ru2","[{:month=>1, :stat=>46}, {:month=>2, :stat=>58}, {:month=>3, :stat=>52}, {:month=>4, :stat=>49}, {:month=>5, :stat=>37}, {:month=>6, :stat=>34}, {:month=>7, :stat=>31}, {:month=>8, :stat=>36}, {:month=>9, :stat=>41}, {:month=>10, :stat=>42}, {:month=>11, :stat=>43}, {:month=>12, :stat=>41}]"
"true","Koblevo ","Koblevo","Ukraine","46.743","31.1575","","https://www.windfinder.com/wind-cgi/homepagestatistics.pl?STATIONSNR=ua1","[{:month=>1, :stat=>35}, {:month=>2, :stat=>38}, {:month=>3, :stat=>46}, {:month=>4, :stat=>39}, {:month=>5, :stat=>28}, {:month=>6, :stat=>30}, {:month=>7, :stat=>31}, {:month=>8, :stat=>29}, {:month=>9, :stat=>31}, {:month=>10, :stat=>31}, {:month=>11, :stat=>31}, {:month=>12, :stat=>33}]"
"true","Newport Beach ","Newport","Wales (UK)","52.0277","","Go to the southern end if the beach is busy although this is only likely in peak summer periods. Outside of peak periods good learning venue at low tides loads of space for those embarrassing drags up the beach. Access by car park.","https://www.windfinder.com/wind-cgi/homepagestatistics.pl?STATIONSNR=gb51","[{:month=>1, :stat=>72}, {:month=>2, :stat=>67}, {:month=>3, :stat=>60}, {:month=>4, :stat=>53}, {:month=>5, :stat=>53}, {:month=>6, :stat=>45}, {:month=>7, :stat=>50}, {:month=>8, :stat=>54}, {:month=>9, :stat=>54}, {:month=>10, :stat=>67}, {:month=>11, :stat=>71}, {:month=>12, :stat=>71}]"
"true","Rest Bay ","Porthcawl","Wales (UK)","51.4884","","Big open sandy beach approx 2 miles long facing Southwest.","https://www.windfinder.com/wind-cgi/homepagestatistics.pl?STATIONSNR=gb183","[{:month=>1, :stat=>4}, {:month=>2, :stat=>3}, {:month=>3, :stat=>4}, {:month=>4, :stat=>2}, {:month=>5, :stat=>1}, {:month=>6, :stat=>1}, {:month=>7, :stat=>8}, {:month=>8, :stat=>3}, {:month=>9, :stat=>8}, {:month=>10, :stat=>7}, {:month=>11, :stat=>31}, {:month=>12, :stat=>7}]"
"true","Coney Beach ","Porthcawl","Wales (UK)","51.4781","","Soft sand at high tide, hard towards low tide.","https://www.windfinder.com/wind-cgi/homepagestatistics.pl?STATIONSNR=gb183","[{:month=>1, :stat=>4}, {:month=>2, :stat=>3}, {:month=>3, :stat=>4}, {:month=>4, :stat=>2}, {:month=>5, :stat=>1}, {:month=>6, :stat=>1}, {:month=>7, :stat=>8}, {:month=>8, :stat=>3}, {:month=>9, :stat=>8}, {:month=>10, :stat=>7}, {:month=>11, :stat=>31}, {:month=>12, :stat=>7}]"
"true","Swansea Bay ","Swansea","Wales (UK)","51.6051","","Big sandy beach. At low tide you have to walk a bit. Various rocky outcrops to look out for and shifting sand and mud. Low amount of people on the beach during the winter and autumn. Only people walking dogs. During University summer term, lost of students on the beach on nice days.","https://www.windfinder.com/wind-cgi/homepagestatistics.pl?STATIONSNR=gb36","[{:month=>1, :stat=>66}, {:month=>2, :stat=>62}, {:month=>3, :stat=>53}, {:month=>4, :stat=>52}, {:month=>5, :stat=>60}, {:month=>6, :stat=>53}, {:month=>7, :stat=>58}, {:month=>8, :stat=>62}, {:month=>9, :stat=>57}, {:month=>10, :stat=>64}, {:month=>11, :stat=>58}, {:month=>12, :stat=>59}]"
"true","Aberavon ","Port Talbot","Wales (UK)","51.6007","","Big sandy beach approx. 3 miles long. Very popular kitesurf beach in South Wales attracting people from all over South West Wales and England. Sand is hard at mid to low tide and popular with buggy and ATB kiters. Please use the far West end of the beach past the concrete promenade.","https://www.windfinder.com/wind-cgi/homepagestatistics.pl?STATIONSNR=gb36","[{:month=>1, :stat=>66}, {:month=>2, :stat=>62}, {:month=>3, :stat=>53}, {:month=>4, :stat=>52}, {:month=>5, :stat=>60}, {:month=>6, :stat=>53}, {:month=>7, :stat=>58}, {:month=>8, :stat=>62}, {:month=>9, :stat=>57}, {:month=>10, :stat=>64}, {:month=>11, :stat=>58}, {:month=>12, :stat=>59}]"
"true","Newgale Sands ","Haverford West, Newgale","Wales (UK)","51.8524","","Long beach. Wide at low tide, no beach at high tide.","https://www.windfinder.com/wind-cgi/homepagestatistics.pl?STATIONSNR=gb95","[{:month=>1, :stat=>56}, {:month=>2, :stat=>49}, {:month=>3, :stat=>44}, {:month=>4, :stat=>39}, {:month=>5, :stat=>40}, {:month=>6, :stat=>34}, {:month=>7, :stat=>34}, {:month=>8, :stat=>42}, {:month=>9, :stat=>41}, {:month=>10, :stat=>48}, {:month=>11, :stat=>52}, {:month=>12, :stat=>59}]"
"true","Llangenith ","Rhossili","Wales (UK)","51.5891","","Incredible beach at least a couple miles long, fair walk to the water at low tide, high tide brings water right up to the dunes. So much space makes it incredibly safe. Very clean.","https://www.windfinder.com/wind-cgi/homepagestatistics.pl?STATIONSNR=gb68","[{:month=>1, :stat=>58}, {:month=>2, :stat=>57}, {:month=>3, :stat=>58}, {:month=>4, :stat=>55}, {:month=>5, :stat=>60}, {:month=>6, :stat=>54}, {:month=>7, :stat=>59}, {:month=>8, :stat=>65}, {:month=>9, :stat=>58}, {:month=>10, :stat=>58}, {:month=>11, :stat=>56}, {:month=>12, :stat=>58}]"
"true","Pembrey ","Burry Port","Wales (UK)","51.69","","Big, sandy beach with lots of space.","https://www.windfinder.com/wind-cgi/homepagestatistics.pl?STATIONSNR=gb68","[{:month=>1, :stat=>58}, {:month=>2, :stat=>57}, {:month=>3, :stat=>58}, {:month=>4, :stat=>55}, {:month=>5, :stat=>60}, {:month=>6, :stat=>54}, {:month=>7, :stat=>59}, {:month=>8, :stat=>65}, {:month=>9, :stat=>58}, {:month=>10, :stat=>58}, {:month=>11, :stat=>56}, {:month=>12, :stat=>58}]"
"true","Llanelli ","Llanelli","Wales (UK)","51.6729","","Tidal beach. Long walk to the waterline on low tide. The beach can vanish on a high high tide.","https://www.windfinder.com/wind-cgi/homepagestatistics.pl?STATIONSNR=gb68","[{:month=>1, :stat=>58}, {:month=>2, :stat=>57}, {:month=>3, :stat=>58}, {:month=>4, :stat=>55}, {:month=>5, :stat=>60}, {:month=>6, :stat=>54}, {:month=>7, :stat=>59}, {:month=>8, :stat=>65}, {:month=>9, :stat=>58}, {:month=>10, :stat=>58}, {:month=>11, :stat=>56}, {:month=>12, :stat=>58}]"
"true","Llandudno Westshore ","Llandudno","Wales (UK)","53.317","","Sandy beach with lots of space during low tide. During high tide the beach gets narrow. Along the beach is a concrete wall. A long wave breaker to the north and south. A small one in the center, but the beach is long. Beginners should go further south towards the golf course in a W or NW wind, here is an area with no obstacles. Grassy rigging areas next to the beach.","https://www.windfinder.com/wind-cgi/homepagestatistics.pl?STATIONSNR=gb98","[{:month=>1, :stat=>36}, {:month=>2, :stat=>26}, {:month=>3, :stat=>28}, {:month=>4, :stat=>20}, {:month=>5, :stat=>20}, {:month=>6, :stat=>11}, {:month=>7, :stat=>16}, {:month=>8, :stat=>15}, {:month=>9, :stat=>14}, {:month=>10, :stat=>16}, {:month=>11, :stat=>24}, {:month=>12, :stat=>32}]"
